{
 "type": "FeatureCollection",
 "name": "Festyny dzielnicowe PDS",
 "features": [
  {
   "type": "Feature",
   "geometry": {
    "type": "Point",
    "coordinates": [
     13.5748,
     52.444
    ]
   },
   "properties": {
    "name": "1. Mai Fest Köpenick",
    "Lata": "1992;1993;2005;2007;2008;2009;2010;2011;2012;2013;2014;2015;2016;2017;2018;2019",
    "description": "1992: Frühlingsfest auf der Schloßinsel, 14:00\n   źródło: ND 30.04.1992\n   „14 Uhr startet in Weißensee in der Parkstraße 23 ein Frühlingsfest, ebenso auf der Köpenicker Schloßinsel. Kiezfeste mit Gregor Gysi finden am Nachmittag in Alt-Marzahn (”\n\n1993: Maifeier der PDS Köpenick, 14:00–17:00 [adres z innych edycji cyklu]\n   źródło: ND 30.04.1993\n   „14 Uhr startet in Weißensee in der Parkstraße 23 ein Frühlingsfest, ebenso auf der Köpenicker Schloßinsel. Kiezfeste mit Gregor Gysi finden am Nachmittag in Alt-Marzahn (”\n\n2005: Maifest Schlossplatz Köpenick, 13:00\n   źródło: PDS Berlin, Termine 05.04.2005\n   „ab 13 Uhr starten die Maifeste. Am Schloßplatz, Altstadt Köpenick, findet ihr das Maifest der Linken Treptow-Köpenick, mit Gregor Gysi, Petra Pau und Katina Schubert. Auch an der Bötzow-Eiche, Bötzowstraße / Am Friedrichshain, findet ein Maifest statt. Mit Elke Breitenbach, Stefan Liebich, Petra Pau und Martina Michels.”\n\n2007: Maifest »Venceremos!«, 13:00–18:00 — Ines Feierabend; Michael Schneider\n   źródło: blättchen (Die Linke Treptow-Köpenick) 05/2007\n   „18 Uhr Schlossplatz Köpenick”\n\n2008: Maifete im Frauentog, 13:00–18:00\n   źródło: blättchen (Die Linke Treptow-Köpenick) 139, maj 2008\n   „13-18 Uhr Maifete im Frauentog, Altstadt Köpenick MO 5.5. 17:00 Basistreffen: Konzept zur Mitgliedergewinnung und –pflege,”\n\n2009: Maifest im Frauentog, 13:00–18:00 — Gregor Gysi\n   źródło: blättchen (Die Linke Treptow-Köpenick) 148, kwiecien 2009\n   „13-18 Uhr, Frauentog (Schlossplatz) Köpenick Gregor Gysi sowie Landes- und Bezirkspolitiker vor Ort, Marktstände, Bühnenprogramme, gastronomische Versorgung 8. Mai, Tag der Befreiung”\n\n2010: Maifest am Schloßplatz, 13:00–18:00\n   źródło: blättchen (Die Linke Treptow-Köpenick) 160, 29.04.2010\n   „13 – 18 Uhr Maifest am Schloßplatz Köpenick. Mit Musik, Gesprächsrunden und gastronomischer Versorgung.”\n\n2011: Maifest der Partei DIE LINKE, 13:00–18:00 — Marko Tesch; Petra Pau; Klaus Lederer\n   źródło: blättchen (Die Linke Treptow-Köpenick) 169, kwiecien 2011\n   „13–18 Uhr Uhr Maifest der Partei DIE LINKE, Frauentog Altstadt Köpenick. So 1.5.”\n\n2012: Maifest am Frauentog, 13:00–18:00 — Klaus Lederer\n   źródło: blättchen (Die Linke Treptow-Köpenick) 180, kwiecien 2012\n   „13–18 Uhr Uhr Maifest der Partei DIE LINKE, Frauentog Altstadt Köpenick. So 1.5.”\n\n2013: Maifest in Treptow-Köpenick — Petra Pau\n   źródło: Facebook Die Linke, 1.05.2013\n   „ab 13 Uhr starten die Maifeste. Am Schloßplatz, Altstadt Köpenick, findet ihr das Maifest der Linken Treptow-Köpenick, mit Gregor Gysi, Petra Pau und Katina Schubert. Auch an der Bötzow-Eiche, Bötzowstraße / Am Friedrichshain, findet ein Maifest statt. Mit Elke Breitenbach, Stefan Liebich, Petra Pau und Martina Michels.”\n\n2014: Maifest der LINKEN Treptow-Köpenick, 13:00–19:00\n   źródło: blättchen (Die Linke Treptow-Köpenick) 201, 03.04.2014\n   „13 – 19 Uhr Maifest der LINKEN Treptow-Köpenick am Schloßplatz Köpenick. Programm siehe Seite 1. Do 1.5.”\n\n2015: Maifest der LINKEN Treptow-Köpenick, 13:00–18:00\n   źródło: blättchen (Die Linke Treptow-Köpenick) 211, kwiecien 2015\n   „13–18 Uhr Maifest der LINKEN Treptow-Köpenick am Schloßplatz Köpenick. DO 1.5.”\n\n2016: Maifest der LINKEN Treptow-Köpenick, 13:00–18:00\n   źródło: blättchen (Die Linke Treptow-Köpenick) 221, kwiecien 2016\n   „13–18 Uhr Maifest der LINKEN Treptow-Köpenick auf demSchloßplatz Köpenick. ·”\n\n2017: 1. Mai-Fest DIE LINKE Treptow-Köpenick, 13:00–18:00 — Katina Schubert\n   źródło: Newsletter Die Linke Berlin 21.04.2017\n   „13 bis 18 Uhr: 1. Mai Fest DIE LINKE. Treptow-Köpenick, Schlossplatz, Altstadt Köpenick, u.a. mit Petra Pau und Klaus Lederer (ca.”\n\n2018: 1. Mai Fest DIE LINKE Treptow-Köpenick, 13:00–18:00 — Petra Pau; Klaus Lederer; Katina Schubert\n   źródło: ND\n   „13 bis 18 Uhr: 1. Mai Fest DIE LINKE. Treptow-Köpenick, Schlossplatz, Altstadt Köpenick, u.a. mit Petra Pau und Klaus Lederer (ca.”\n\n2019: Maifest auf dem Schlossplatz Köpenick, 13:00 — Gregor Gysi; Petra Pau; Katina Schubert; Klaus Lederer\n   źródło: Newsletter Die Linke Berlin; blättchen (Die Linke Treptow-Köpenick) 250, maj 2019\n   „ab 13 Uhr starten die Maifeste. Am Schloßplatz, Altstadt Köpenick, findet ihr das Maifest der Linken Treptow-Köpenick, mit Gregor Gysi, Petra Pau und Katina Schubert. Auch an der Bötzow-Eiche, Bötzowstraße / Am Friedrichshain, findet ein Maifest statt. Mit Elke Breitenbach, Stefan Liebich, Petra Pau und Martina Michels.”",
    "Aktor": "Die Linke;PDS",
    "Dzielnica": "Köpenick",
    "Edycji opisanych": 16,
    "Zrodla": "Facebook Die Linke, 1.05.2013; ND; ND 30.04.1992; ND 30.04.1993; Newsletter Die Linke Berlin 21.04.2017; Newsletter Die Linke Berlin; blättchen (Die Linke Treptow-Köpenick) 250, maj 2019; PDS Berlin, Termine 05.04.2005; blättchen (Die Linke Treptow-Köpenick) 05/2007; blättchen (Die Linke Treptow-Köpenick) 139, maj 2008; blättchen (Die Linke Treptow-Köpenick) 148, kwiecien 2009; blättchen (Die Linke Treptow-Köpenick) 160, 29.04.2010; blättchen (Die Linke Treptow-Köpenick) 169, kwiecien 2011; blättchen (Die Linke Treptow-Köpenick) 180, kwiecien 2012; blättchen (Die Linke Treptow-Köpenick) 201, 03.04.2014; blättchen (Die Linke Treptow-Köpenick) 211, kwiecien 2015; blättchen (Die Linke Treptow-Köpenick) 221, kwiecien 2016",
    "Precyzja": "plac",
    "Zrodlo punktu": "Schlossplatz / Frauentog, Altstadt; polozenie rozpoznane z nazwy miejsca, nie z geokodera"
   }
  },
  {
   "type": "Feature",
   "geometry": {
    "type": "Point",
    "coordinates": [
     13.5735,
     52.4455
    ]
   },
   "properties": {
    "name": "1. Mai Fest Köpenick",
    "Lata": "1994;1997;2000;2002",
    "description": "1994: Maifeier im Luisenhain, 14:00–18:00\n   źródło: nd 27.04.1994\n   „14-18 Uhr, Luisenhain, Marzahn,”\n\n1997: Maifest im Luisenhain, 14:00–18:00\n   źródło: ND 30.04.1997\n   „14-18 Uhr, Luisenhain, Marzahn,”\n\n2000: PDS-Mai-Fest im Luisenhain, 13:00–18:00\n   źródło: ND 29.04.2000\n   „13-18 Uhr PDS-Mai-Fest, Luisenhain, Köpenick”\n\n2002: Maifest im Luisenhain, 13:00–19:00\n   źródło: ND 26.04.2002\n   „In Berlin ruft die PDS für 12.30 Uhr zu einer Kundgebung auf dem Alexanderplatz. Maifeste veranstalten die Sozialisten an der Bötzoweiche (10-20 Uhr, Bötzowstraße, Prenzlauer Berg), am Obersee (11-18 Uhr, Lindenweg, Lichtenberg), auf dem Humannplatz (12-20 Uhr, Prenzlauer Berg), im Luisenhain (13-19 Uhr, Köpenick) und in der Springbornstraße (14-18 Uhr, Johannisthal). Die SPD feiert am »Zenner« im Treptower Park (13-17 Uhr) sowie in Bürgerpark Pankow, Schlosspark Buch und am Arnswalder Platz (jeweils 13-18 Uhr). Bündnisse organisieren Feiern auf dem Marzahner Helene-Weigel-Platz (14-20 Uhr) und auf dem Kreuzberger Mariannenplatz (15-21 Uhr).”",
    "Aktor": "PDS",
    "Dzielnica": "Köpenick",
    "Edycji opisanych": 4,
    "Zrodla": "ND 26.04.2002; ND 29.04.2000; ND 30.04.1997; nd 27.04.1994",
    "Precyzja": "park",
    "Zrodlo punktu": "nad Dahme; polozenie rozpoznane z nazwy miejsca, nie z geokodera"
   }
  },
  {
   "type": "Feature",
   "geometry": {
    "type": "Point",
    "coordinates": [
     13.588,
     52.529
    ]
   },
   "properties": {
    "name": "1. Mai-Fest Cecilienplatz",
    "Lata": "2017",
    "description": "2017: 1. Mai-Fest Cecilienplatz, 14:00–18:00\n   źródło: Newsletter Die Linke Berlin 21.04.2017\n   „14 bis 18 Uhr: 1.Mai-Fest, Cecilienplatz, Nähe U-Bahnhof Kaulsdorf-Nord, 12619 Berlin”",
    "Aktor": "Die Linke",
    "Dzielnica": "Hellersdorf",
    "Edycji opisanych": 1,
    "Zrodla": "Newsletter Die Linke Berlin 21.04.2017",
    "Precyzja": "plac",
    "Zrodlo punktu": "polozenie rozpoznane z nazwy miejsca, nie z geokodera"
   }
  },
  {
   "type": "Feature",
   "geometry": {
    "type": "Point",
    "coordinates": [
     13.4016,
     52.5688
    ]
   },
   "properties": {
    "name": "Familiennachmittag in der »Pankgräfin«",
    "Lata": "1992",
    "description": "1992: Familiennachmittag in der »Pankgräfin«, 16:00\n   źródło: ND 30.04.1992\n   „ab 16 Uhr auch in der „Pankgräfin“ in Pankow (Breite Straße 43) gemeinsam mit PDS-Kandidaten”",
    "Aktor": "PDS",
    "Dzielnica": "Pankow",
    "Edycji opisanych": 1,
    "Zrodla": "ND 30.04.1992",
    "Precyzja": "adres",
    "Zrodlo punktu": "Breite Straße 43; polozenie rozpoznane z nazwy miejsca, nie z geokodera"
   }
  },
  {
   "type": "Feature",
   "geometry": {
    "type": "Point",
    "coordinates": [
     13.434,
     52.5305
    ]
   },
   "properties": {
    "name": "Fest an der Bötzow-Eiche",
    "Lata": "2000;2002;2004;2005;2007;2008;2009;2010;2011;2012;2013;2015;2017;2018;2019",
    "description": "2000: PDS-Fest Bötzowstraße, 10:00–20:00\n   źródło: ND 29.04.2000\n   „10-20 Uhr PDS-Fest, Bötzowstraße, Prenzlauer Berg”\n\n2002: Maifest an der Bötzoweiche, 10:00–20:00\n   źródło: ND 26.04.2002\n   „In Berlin ruft die PDS für 12.30 Uhr zu einer Kundgebung auf dem Alexanderplatz. Maifeste veranstalten die Sozialisten an der Bötzoweiche (10-20 Uhr, Bötzowstraße, Prenzlauer Berg), am Obersee (11-18 Uhr, Lindenweg, Lichtenberg), auf dem Humannplatz (12-20 Uhr, Prenzlauer Berg), im Luisenhain (13-19 Uhr, Köpenick) und in der Springbornstraße (14-18 Uhr, Johannisthal). Die SPD feiert am »Zenner« im Treptower Park (13-17 Uhr) sowie in Bürgerpark Pankow, Schlosspark Buch und am Arnswalder Platz (jeweils 13-18 Uhr). Bündnisse organisieren Feiern auf dem Marzahner Helene-Weigel-Platz (14-20 Uhr) und auf dem Kreuzberger Mariannenplatz (15-21 Uhr).”\n\n2004: 15. Kiezfest an der Bötzow-Eiche, 14:00\n   źródło: Zotero: »Botzow-Fest 1. Mai PDS«, s. 12\n   „1. Mai ab 14 Uhr 15. Kiezfest an der Bötzow-Eiche, Bötzowstraße/Am Friedrichshain”\n\n2005: Maifest an der Bötzoweiche, 14:00\n   źródło: PDS Berlin, Termine 05.04.2005; Zotero: »Botzow-Fest 1. Mai PDS«, s. 8\n   „1. Mai Maifest an der Bötzoweiche”\n\n2007: 1. Mai-Fest an der Bötzow-Eiche, 13:00–18:00\n   źródło: Zotero: »Botzow-Fest 1. Mai PDS«\n   „1. Mai 13 bis 18 Uhr 1. Mai-Fest an der Bötzow-Eiche, Bötzowstraße/Am Friedrichshain”\n\n2008: 1. Mai-Fest an der Bötzoweiche, 13:00\n   źródło: Zotero: »Botzow-Fest 1. Mai PDS«, s. 8\n   „01. Mai 13 Uhr 1.Mai-Fest an der Bötzoweiche, Am Friedrichshain/Bötzowstraße vor dem Kino am Friedrichshain”\n\n2009: 1. Mai-Fest an der Bötzow-Eiche, 14:00–19:00\n   źródło: Zotero: »Botzow-Fest 1. Mai PDS«, s. 8\n   „01. Mai 14 - 19 Uhr 1. Mai-Fest an der Bötzow-Eiche, Straße am Friedrichshain beim Kino am Friedrichshain”\n\n2010: Maifest der LINKEN Pankow an der Bötzoweiche, 14:00\n   źródło: Zotero: »Botzow-Fest 1. Mai PDS«, s. 8\n   „1. Mai 14 Uhr Maifest der LINKEN Pankow an der Bötzoweiche mit Hopse-Burg, Ulf und Zwulf und Tino Eisbrenner u.v.a.m., Am Friedrichshain, Ecke Bötzowstraße”\n\n2011: 1. Mai Fest an der Bötzoweiche, 14:00\n   źródło: Zotero: »Botzow-Fest 1. Mai PDS«, s. 8\n   „1. Mai 14.00 Uhr 1. Mai Fest an der Bötzoweiche, Bötzowstraße, Ecke Am Friedrichshain”\n\n2012: 1. Mai-Fest an der Bötzoweiche, 13:00\n   źródło: Zotero: »Botzow-Fest 1. Mai PDS«, s. 7\n   „1. Mai • 13 Uhr 1. Mai-Fest an der Bötzoweiche Kino am Friedrichshain”\n\n2013: 1. Mai Fest an der Bötzoweiche, 13:00\n   źródło: Zotero: »Botzow-Fest 1. Mai PDS«, s. 7\n   „1. Mai • 13 Uhr 1. Mai Fest an der Bötzoweiche, Straße am Friedrichshain/Bötzowstraße”\n\n2015: 1. Mai-Fest an der Bötzoweiche, 13:00\n   źródło: Zotero: »Botzow-Fest 1. Mai PDS«, s. 7\n   „1. Mai • 13 Uhr 1. Mai-Fest an der Bötzoweiche, am Kino am Friedrichshain”\n\n2017: Fest an der Bötzow-Eiche, 13:00–18:30 — Elke Breitenbach\n   źródło: Newsletter Die Linke Berlin 21.04.2017\n   „13 bis 18.30 Uhr: Fest an der Bötzow-Eiche, Ecke Bötzowstraße/ Straße am Friedrichshain (Sozialsenatorin Elke Breitenbach wird anwesend sein)”\n\n2018: Fest an der Bötzow-Eiche, 13:00–18:30 — Katina Schubert; Pascal Meiser; Klaus Lederer; Elke Breitenbach; Petra Pau; Stefan Liebich\n   źródło: ND\n   „13 bis 18.30 Uhr: Fest an der Bötzow-Eiche, u.a. mit Katina Schubert, Pascal Meiser (ca.”\n\n2019: Maifest an der Bötzow-Eiche, 13:00 — Elke Breitenbach; Stefan Liebich; Petra Pau; Martina Michels\n   źródło: Newsletter Die Linke Berlin »Maifeierlichkeiten«\n   „ab 13 Uhr starten die Maifeste. Am Schloßplatz, Altstadt Köpenick, findet ihr das Maifest der Linken Treptow-Köpenick, mit Gregor Gysi, Petra Pau und Katina Schubert. Auch an der Bötzow-Eiche, Bötzowstraße / Am Friedrichshain, findet ein Maifest statt. Mit Elke Breitenbach, Stefan Liebich, Petra Pau und Martina Michels.”",
    "Aktor": "Die Linke;PDS",
    "Dzielnica": "Prenzlauer Berg",
    "Edycji opisanych": 15,
    "Zrodla": "ND; ND 26.04.2002; ND 29.04.2000; Newsletter Die Linke Berlin 21.04.2017; Newsletter Die Linke Berlin »Maifeierlichkeiten«; PDS Berlin, Termine 05.04.2005; Zotero: »Botzow-Fest 1. Mai PDS«, s. 8; Zotero: »Botzow-Fest 1. Mai PDS«; Zotero: »Botzow-Fest 1. Mai PDS«, s. 12; Zotero: »Botzow-Fest 1. Mai PDS«, s. 7; Zotero: »Botzow-Fest 1. Mai PDS«, s. 8",
    "Precyzja": "skrzyzowanie",
    "Zrodlo punktu": "Bötzowstraße / Am Friedrichshain, przy Kino am Friedrichshain; polozenie rozpoznane z nazwy miejsca, nie z geokodera; poprawione po kontroli wielokatem dzielnicy"
   }
  },
  {
   "type": "Feature",
   "geometry": {
    "type": "Point",
    "coordinates": [
     13.462,
     52.5545
    ]
   },
   "properties": {
    "name": "Frühlingsfest Parkstraße",
    "Lata": "1992;1993",
    "description": "1992: Frühlingsfest Parkstraße, 14:00\n   źródło: ND 30.04.1992\n   „14 Uhr startet in Weißensee in der Parkstraße 23 ein Frühlingsfest, ebenso auf der Köpenicker Schloßinsel. Kiezfeste mit Gregor Gysi finden am Nachmittag in Alt-Marzahn (”\n\n1993: Bunter Nachmittag in der PDS-Geschäftsstelle, 13:00\n   źródło: ND 30.04.1993\n   „Ein bunter Nachmittag steht in der PDS-Geschäftsstelle Wei-ßensee, Parkstraße 23 ab 13 Uhr an.”",
    "Aktor": "PDS",
    "Dzielnica": "Weißensee",
    "Edycji opisanych": 2,
    "Zrodla": "ND 30.04.1992; ND 30.04.1993",
    "Precyzja": "adres",
    "Zrodlo punktu": "Parkstraße 23; polozenie rozpoznane z nazwy miejsca, nie z geokodera"
   }
  },
  {
   "type": "Feature",
   "geometry": {
    "type": "Point",
    "coordinates": [
     13.509,
     52.564
    ]
   },
   "properties": {
    "name": "Gegenkundgebung vor dem Lindencenter",
    "Lata": "2012",
    "description": "2012: Gegenkundgebung vor dem Lindencenter, 14:00\n   źródło: Berliner Zeitung 30.04.2012\n   „Tollensestraße und von 14.30 Der Bezirksverband der Linkspartei hat zu einer Gegenkundgebung aufgerufen, die”",
    "Aktor": "Die Linke",
    "Dzielnica": "Lichtenberg",
    "Edycji opisanych": 1,
    "Zrodla": "Berliner Zeitung 30.04.2012",
    "Precyzja": "plac",
    "Zrodlo punktu": "Prerower Platz -- ten sam punkt; polozenie rozpoznane z nazwy miejsca, nie z geokodera"
   }
  },
  {
   "type": "Feature",
   "geometry": {
    "type": "Point",
    "coordinates": [
     13.4135,
     52.513
    ]
   },
   "properties": {
    "name": "Großes Familienfest am Köllnischen Park",
    "Lata": "1992",
    "description": "1992: Großes Familienfest am Köllnischen Park, 12:00\n   źródło: ND 30.04.1992\n   „ab 12 Uhr das Haus Am Köllnischen Park zu einem großen Familienfest ein,”",
    "Aktor": "PDS",
    "Dzielnica": "Mitte",
    "Edycji opisanych": 1,
    "Zrodla": "ND 30.04.1992",
    "Precyzja": "park",
    "Zrodlo punktu": "polozenie rozpoznane z nazwy miejsca, nie z geokodera"
   }
  },
  {
   "type": "Feature",
   "geometry": {
    "type": "Point",
    "coordinates": [
     13.5265,
     52.4835
    ]
   },
   "properties": {
    "name": "Maifeier der PDS Lichtenberg",
    "Lata": "1997",
    "description": "1997 (30.04): Maifeier der PDS Lichtenberg, 19:00\n   źródło: ND 30.04.1997\n   „ab 19 Uhr, Kulturhaus Karlshorst. Pankow feiert am 2. und 3. Mai das 7. Nordberliner Früh-Links-Fest in der Schönholzer Heide.”",
    "Aktor": "PDS",
    "Dzielnica": "Lichtenberg",
    "Edycji opisanych": 1,
    "Zrodla": "ND 30.04.1997",
    "Precyzja": "obiekt",
    "Zrodlo punktu": "Treskowallee; polozenie rozpoznane z nazwy miejsca, nie z geokodera"
   }
  },
  {
   "type": "Feature",
   "geometry": {
    "type": "Point",
    "coordinates": [
     13.4585,
     52.551
    ]
   },
   "properties": {
    "name": "Maifeier der PDS Weißensee",
    "Lata": "1997",
    "description": "1997 (30.04): Maifeier der PDS Weißensee, 14:30–22:00\n   źródło: ND 30.04.1997\n   „14.30-22 Uhr, Herbert-Baum-Straße, und Lichtenberg,”",
    "Aktor": "PDS",
    "Dzielnica": "Weißensee",
    "Edycji opisanych": 1,
    "Zrodla": "ND 30.04.1997",
    "Precyzja": "ulica",
    "Zrodlo punktu": "polozenie rozpoznane z nazwy miejsca, nie z geokodera"
   }
  },
  {
   "type": "Feature",
   "geometry": {
    "type": "Point",
    "coordinates": [
     13.452,
     52.4885
    ]
   },
   "properties": {
    "name": "Maifeier im Gerard-Philippe-Klub",
    "Lata": "1992",
    "description": "1992: Maifeier im Gerard-Philippe-Klub, 14:00\n   źródło: ND 30.04.1992\n   „ab 14 Uhr gleich zwei Maifeiern ein: Im Johannisthaler Springbornclub (Springbornstraße) und im Gerard-Philippe-Klub (Karl-Kunger-Stra-ße).”",
    "Aktor": "PDS",
    "Dzielnica": "Treptow",
    "Edycji opisanych": 1,
    "Zrodla": "ND 30.04.1992",
    "Precyzja": "ulica",
    "Zrodlo punktu": "polozenie rozpoznane z nazwy miejsca, nie z geokodera"
   }
  },
  {
   "type": "Feature",
   "geometry": {
    "type": "Point",
    "coordinates": [
     13.5976,
     52.5384
    ]
   },
   "properties": {
    "name": "Maifest Boulevard Kastanienallee",
    "Lata": "1991;1993;1996;1997",
    "description": "1991: Maifeier in Hellersdorf, 15:00 — Gregor Gysi\n   źródło: rocznik DE 1991\n   „15:00 - Maifeier in Hellersdorf (mit viel Musik)”\n\n1993: Maifest vor dem Haus der Parteien, 10:00\n   źródło: ND 30.04.1993\n   „10 Uhr vor dem Haus der Parteien in der Kastanienallee 6-8. Im Treptower „Springbrunnenclub“ wird”\n\n1996: Maifest Boulevard Kastanienallee, 10:00 — Hermann Kant; Gisela Steineckert\n   źródło: ND 30.04.1996\n   „ab 10 Uhr im Boulevard Kastanienallee erwartet. Mit Politikern kann man über die Länderfusion diskutieren. Stadträte und Abgeordnete stehen Rede und Antwort. Herrnann Kant und Gisela Steineckert signieren ihre Bücher.”\n\n1997: Maifest Boulevard Kastanienallee, 11:00–19:00\n   źródło: ND 30.04.1997\n   „11-19 Uhr, Boulevard Kastanienallee. Schon am heutigen 30. April feiern die PDS Wei-ßensee,”",
    "Aktor": "PDS",
    "Dzielnica": "Hellersdorf",
    "Edycji opisanych": 4,
    "Zrodla": "ND 30.04.1993; ND 30.04.1996; ND 30.04.1997; rocznik DE 1991",
    "Precyzja": "adres",
    "Zrodlo punktu": "Kastanienallee 6-8, Hellersdorf; polozenie rozpoznane z nazwy miejsca, nie z geokodera"
   }
  },
  {
   "type": "Feature",
   "geometry": {
    "type": "Point",
    "coordinates": [
     13.506,
     52.5645
    ]
   },
   "properties": {
    "name": "Maifest Hohenschönhausen (Falkenberger Chaussee)",
    "Lata": "2003;2005;2006;2007;2010;2013;2015;2017;2018",
    "description": "2003: Bürgerdemo und -kundgebung »Gegen rechte Gewalt«, 10:30–12:45\n   źródło: info links (Die Linke Lichtenberg) 03/2003\n   „10.30 Uhr: Stellplatz Demo: Falkenberger Chaussee/Höhe Kirche bis Ecke Vincentvan-Gogh-Straße,”\n\n2005: Maifest Lichtenberg, 11:00–18:00\n   źródło: PDS Berlin, Termine 05.04.2005; info links (Die Linke Lichtenberg) 03/2005\n   „11–18 Uhr Maifest Lichtenberg; Falkenberger Chaussee, zwischen Pablo-Picassound Vincent-van-Gogh-Straße (* Veranstaltungsort: Alfred-Kowalke-Straße 14) BuchTipp Demokratischer Abbruch Ein neues Buch von Daniela Dahn ist immer der Aufmerk…”\n\n2006: Familienfest Falkenberger Chaussee, 11:00\n   źródło: info links (Die Linke Lichtenberg) 03/2006\n   „ab 11 Uhr: Falkenberger Chaussee/Vincent-van-Gogh-Straße (mit einem Stand der Linkspartei),”\n\n2007: Lichtenberger Familienfest, 11:00–18:00\n   źródło: info links (Die Linke Lichtenberg) 03/2007\n   „11 –18 Uhr LichtenbergerFam ilienfest;Warnitzer Bogen,FalkenbergerChaussee/Ecke Pablo-Picasso-Straße G Dienstag, 1.5.,”\n\n2010: Stadtteilfest »Bunte Platte«, 11:00\n   źródło: Berliner Morgenpost 29.04.2010\n   „Das jährlich in Hohenschönhausen stattfindende Stadtteilfest »Bunte Platte« eröffnet dieses Jahr die Feiern zum 25. Geburtstag des Stadtbezirks. [...] Falkenberger Chaussee / Vincent-van-Gogh-Straße, 1. Mai, ab 11 Uhr”\n\n2013: Maifest »Bunte Platte« — Gesine Lötzsch [adres z innych edycji cyklu]\n   źródło: Facebook Die Linke, 1.05.2013\n   „Maifest \"Bunte Platte\" in Hohenschönhausen: Mit dabei auch die Bundestagsabgeordnete Gesine Lötzsch.”\n\n2015: Maifest auf der Falkenberger Festwiese, 11:00\n   źródło: info links (Die Linke Lichtenberg) 03/2015\n   „ab 11 Uhr DIE LINKE. Lichtenberg ist beim Maifest auf der Falkenberger Fest - wiese dabei! MIT RA T & TAT SPRECHSTUNDEN TERMINE Öffnungszeiten der Geschäfts - stelle der LINKEN in der Alfre dKowalk e-Straße 14:”\n\n2017: Familienfest Hohenschönhausen, 11:00–17:00\n   źródło: Newsletter Die Linke Berlin 21.04.2017\n   „11 bis 17 Uhr: Familienfest »Bunte Platte« in Hohenschönhausen, Falkenberger Chaussee/ Vincent-van-Gogh-Straße, u.a. mit Michael Grunst und Gesine Lötzsch”\n\n2018: Familienfest »Bunte Platte«, 11:00–17:00 — Michael Grunst; Gesine Lötzsch\n   źródło: ND\n   „11 bis 17 Uhr: Familienfest »Bunte Platte« in Hohenschönhausen, Falkenberger Chaussee/ Vincent-van-Gogh-Straße, u.a. mit Michael Grunst und Gesine Lötzsch”",
    "Aktor": "Die Linke;Linkspartei;PDS",
    "Dzielnica": "Hohenschönhausen",
    "Edycji opisanych": 9,
    "Zrodla": "Berliner Morgenpost 29.04.2010; Facebook Die Linke, 1.05.2013; ND; Newsletter Die Linke Berlin 21.04.2017; PDS Berlin, Termine 05.04.2005; info links (Die Linke Lichtenberg) 03/2005; info links (Die Linke Lichtenberg) 03/2003; info links (Die Linke Lichtenberg) 03/2006; info links (Die Linke Lichtenberg) 03/2007; info links (Die Linke Lichtenberg) 03/2015",
    "Precyzja": "skrzyzowanie",
    "Zrodlo punktu": "Falkenberger Chaussee / Vincent-van-Gogh-Straße; polozenie rozpoznane z nazwy miejsca, nie z geokodera"
   }
  },
  {
   "type": "Feature",
   "geometry": {
    "type": "Point",
    "coordinates": [
     13.515,
     52.57
    ]
   },
   "properties": {
    "name": "Maifest Hohenschönhausen (Falkenberger Chaussee)",
    "Lata": "2012;2019",
    "description": "2012: Familienfest »Bunte Platte«, 11:00–20:00\n   źródło: Berliner Zeitung 30.04.2012; info links (Die Linke Lichtenberg) 03/2012\n   „Dienstag, 1. Mai 11 – 20 Uhr: Familienfest »Bunte Platte«; Warnitzer Bogen (info links); BZ: Auch der Lichtenberger Bezirksbürgermeister Andreas Geisel (SPD) rief dazu auf, das interkulturelle Fest Bunte Platte an der Falkenberger Chaussee/Vincent-van-Gogh-Straße zu besuchen”\n\n2019: Bunte-Platte-Fest, 10:00 — Petra Pau; Gesine Lötzsch\n   źródło: strona wydarzenia Die Linke Berlin; info links (Die Linke Lichtenberg) 05/2019\n   „10 Uhr Schutz der Grundrechte Bunte-Platte-Fest am Warnitzer Bogen Für welche Sicherheitspolitik steht Trend der Gesetzesverschärfungen weile mehrere gemeinsame Projekte z 7.5.,”",
    "Aktor": "Die Linke",
    "Dzielnica": "Hohenschönhausen",
    "Edycji opisanych": 2,
    "Zrodla": "Berliner Zeitung 30.04.2012; info links (Die Linke Lichtenberg) 03/2012; strona wydarzenia Die Linke Berlin; info links (Die Linke Lichtenberg) 05/2019",
    "Precyzja": "ulica",
    "Zrodlo punktu": "Quartierspark Warnitzer Bogen; polozenie rozpoznane z nazwy miejsca, nie z geokodera"
   }
  },
  {
   "type": "Feature",
   "geometry": {
    "type": "Point",
    "coordinates": [
     13.5115,
     52.442
    ]
   },
   "properties": {
    "name": "Maifest Springbornclub Johannisthal",
    "Lata": "1992;1993;2000;2002;2005;2007;2009;2010;2011;2012;2014;2015;2016;2017",
    "description": "1992: Maifeier im Johannisthaler Springbornclub, 14:00\n   źródło: ND 30.04.1992\n   „ab 14 Uhr gleich zwei Maifeiern ein: Im Johannisthaler Springbornclub (Springbornstraße) und im Gerard-Philippe-Klub (Karl-Kunger-Stra-ße).”\n\n1993: Maifete im Springbrunnenclub, 13:00\n   źródło: ND 30.04.1993\n   „Im Treptower »Springbrunnenclub« wird ab 13 Uhr zur Maifete geladen.”\n\n2000: PDS-Mai-Fest im Springborn-Club, 14:00–18:00\n   źródło: ND 29.04.2000\n   „14-18 Uhr, PDS-Mai-Fest, Springborn- Club, Treptow-Johannisthal”\n\n2002: Maifest in der Springbornstraße, 14:00–18:00\n   źródło: ND 26.04.2002\n   „In Berlin ruft die PDS für 12.30 Uhr zu einer Kundgebung auf dem Alexanderplatz. Maifeste veranstalten die Sozialisten an der Bötzoweiche (10-20 Uhr, Bötzowstraße, Prenzlauer Berg), am Obersee (11-18 Uhr, Lindenweg, Lichtenberg), auf dem Humannplatz (12-20 Uhr, Prenzlauer Berg), im Luisenhain (13-19 Uhr, Köpenick) und in der Springbornstraße (14-18 Uhr, Johannisthal). Die SPD feiert am »Zenner« im Treptower Park (13-17 Uhr) sowie in Bürgerpark Pankow, Schlosspark Buch und am Arnswalder Platz (jeweils 13-18 Uhr). Bündnisse organisieren Feiern auf dem Marzahner Helene-Weigel-Platz (14-20 Uhr) und auf dem Kreuzberger Mariannenplatz (15-21 Uhr).”\n\n2005: Maifest Springbornclub, 14:00\n   źródło: PDS Berlin, Termine 05.04.2005\n   „ab 14 Uhr gleich zwei Maifeiern ein: Im Johannisthaler Springbornclub (Springbornstraße) und im Gerard-Philippe-Klub (Karl-Kunger-Stra-ße).”\n\n2007: 16. Kiez-Fete rund um den Springbornclub, 13:00–18:00 — Rosemarie Schuder; Anne-Kathrin Bürger\n   źródło: blättchen (Die Linke Treptow-Köpenick) 05/2007\n   „16. KIEZ-FETE am 1.Mai 2007 rund um den Springbornclub von 13 bis 18 Uhr”\n\n2009: Kiezfete im Springbornklub, 13:00–18:00\n   źródło: blättchen (Die Linke Treptow-Köpenick) 148, kwiecien 2009\n   „13-18 Uhr, Kiezfete im Springbornklub Joahnnisthal”\n\n2010: Kiezfest im Springbornklub, 13:00–18:00\n   źródło: blättchen (Die Linke Treptow-Köpenick) 160, 29.04.2010\n   „13 – 18 Uhr Kiezfest im Springbornklub Johannisthal. Gesprächsrunden, Musik, Kinderfest, gastronomische Versorgung. Ausgabe Nr. 160”\n\n2011: 20. Kiezfest Berlin-Johannisthal, 12:00–22:00 — Ines Feierabend\n   źródło: blättchen (Die Linke Treptow-Köpenick) 169, kwiecien 2011\n   „12–22 Uhr 20. Kiezfest BerlinJohannisthal. Mit Bürgermeisterkandidatin Ines Feierabend und anderen Gästen in der Talkrunde (ca.”\n\n2012: Kiezfest im Springbornclub, 13:00–18:00\n   źródło: blättchen (Die Linke Treptow-Köpenick) 180, kwiecien 2012\n   „13 – 18 Uhr, Springbornclub Johannisthal / Treptow 13.00 Eröffnung 13.15 Kindertanzgruppe 13.45 Gespräch Bezirksstadträte 14.30 Gespräch mit Klaus Lederer…”\n\n2014: 23. Kiezfest der BO'n Johannisthal, 13:00–18:00\n   źródło: blättchen (Die Linke Treptow-Köpenick) 201, 03.04.2014\n   „13 – 18 Uhr 23. Kiezfest der BO’n Johannisthal der LINKEN im Springbornclub, Springbornstraße 53, 12487 Berlin Mit Musik, Tanz, Talk-Runden und Kinderfest 8 blättchen Weitere Termine der Partei DIE LINKE finden Sie auf Seite 7 TERMINE +++…”\n\n2015: 24. Kiezfest der BO'n Johannisthal, 13:00–18:00 — Petra Pau\n   źródło: blättchen (Die Linke Treptow-Köpenick) 211, kwiecien 2015\n   „13 – 18 Uhr 23. Kiezfest der BO’n Johannisthal der LINKEN im Springbornclub, Springbornstraße 53, 12487 Berlin Mit Musik, Tanz, Talk-Runden und Kinderfest 8 blättchen Weitere Termine der Partei DIE LINKE finden Sie auf Seite 7 TERMINE +++…”\n\n2016: 25. Kiezfest der LINKEN im Springbornclub, 14:00–19:00\n   źródło: blättchen (Die Linke Treptow-Köpenick) 221, kwiecien 2016\n   „14–19 Uhr 25. Kiezfest der LINKEN im Springbornclub Johannisthal So. 8.5.”\n\n2017: Kiezfest Johannisthal, 12:00–20:00\n   źródło: Newsletter Die Linke Berlin 21.04.2017\n   „12 bis 20 Uhr: Kiezfest Johannisthal, Springbornstraße 13, Treptow-Köpenick”",
    "Aktor": "Die Linke;PDS",
    "Dzielnica": "Treptow",
    "Edycji opisanych": 14,
    "Zrodla": "ND 26.04.2002; ND 29.04.2000; ND 30.04.1992; ND 30.04.1993; Newsletter Die Linke Berlin 21.04.2017; PDS Berlin, Termine 05.04.2005; blättchen (Die Linke Treptow-Köpenick) 05/2007; blättchen (Die Linke Treptow-Köpenick) 148, kwiecien 2009; blättchen (Die Linke Treptow-Köpenick) 160, 29.04.2010; blättchen (Die Linke Treptow-Köpenick) 169, kwiecien 2011; blättchen (Die Linke Treptow-Köpenick) 180, kwiecien 2012; blättchen (Die Linke Treptow-Köpenick) 201, 03.04.2014; blättchen (Die Linke Treptow-Köpenick) 211, kwiecien 2015; blättchen (Die Linke Treptow-Köpenick) 221, kwiecien 2016",
    "Precyzja": "adres",
    "Zrodlo punktu": "Springbornstraße 53, Johannisthal; polozenie rozpoznane z nazwy miejsca, nie z geokodera"
   }
  },
  {
   "type": "Feature",
   "geometry": {
    "type": "Point",
    "coordinates": [
     13.5008,
     52.5482
    ]
   },
   "properties": {
    "name": "Maifest am Obersee",
    "Lata": "1996;1997;2000;2002;2003",
    "description": "1996: Festumzug und Maifest am Obersee, 09:30 — Heinz Quermann\n   źródło: ND 30.04.1996\n   „HOHENSCHÖNHAUSEN: Soziale Projekte, Vereine und Verbände laden an den Obersee ein. Ein Festumzug beginnt 9.30 Uhr am Lindencenter. Auf der Festwiese am See gibt es neben allerlei Kurzweil eine Talkrunde mit Kommunalpolitikern.”\n\n1997: Maifest im Oberseepark, 10:00–17:00\n   źródło: ND 30.04.1997\n   „10-17 Uhr, Oberseepark, Hellersdorf,”\n\n2000: Bündnisfest Am Obersee, 11:00–18:00\n   źródło: ND 29.04.2000\n   „18 Uhr Bündnisfest, Am Obersee, Hohenschönhausen”\n\n2002: Maifest am Obersee, 11:00–18:00\n   źródło: ND 26.04.2002\n   „In Berlin ruft die PDS für 12.30 Uhr zu einer Kundgebung auf dem Alexanderplatz. Maifeste veranstalten die Sozialisten an der Bötzoweiche (10-20 Uhr, Bötzowstraße, Prenzlauer Berg), am Obersee (11-18 Uhr, Lindenweg, Lichtenberg), auf dem Humannplatz (12-20 Uhr, Prenzlauer Berg), im Luisenhain (13-19 Uhr, Köpenick) und in der Springbornstraße (14-18 Uhr, Johannisthal). Die SPD feiert am »Zenner« im Treptower Park (13-17 Uhr) sowie in Bürgerpark Pankow, Schlosspark Buch und am Arnswalder Platz (jeweils 13-18 Uhr). Bündnisse organisieren Feiern auf dem Marzahner Helene-Weigel-Platz (14-20 Uhr) und auf dem Kreuzberger Mariannenplatz (15-21 Uhr).”\n\n2003: Maifest am Obersee\n   źródło: info links (PDS Lichtenberg) 03/2003\n   „■ Donnerstag, 1. Mai Bürgerdemo und -kundgebung: »Gegen rechte Gewalt«, 10.30 Uhr: Stellplatz Demo: Falkenberger Chaussee/Höhe Kirche bis Ecke Vincent-van-Gogh-Straße, 11.45–12.45 Uhr: Kundgebung am Prerower Platz; nachmittags: Maifest am Obersee”",
    "Aktor": "PDS",
    "Dzielnica": "Hohenschönhausen",
    "Edycji opisanych": 5,
    "Zrodla": "ND 26.04.2002; ND 29.04.2000; ND 30.04.1996; ND 30.04.1997; info links (PDS Lichtenberg) 03/2003",
    "Precyzja": "park",
    "Zrodlo punktu": "brzeg Obersee; polozenie rozpoznane z nazwy miejsca, nie z geokodera"
   }
  },
  {
   "type": "Feature",
   "geometry": {
    "type": "Point",
    "coordinates": [
     13.4288,
     52.5108
    ]
   },
   "properties": {
    "name": "Maifest im ND-Haus Friedrichshain",
    "Lata": "1993;1994",
    "description": "1993: Maifest von ND und PDS Friedrichshain, 14:00\n   źródło: ND 30.04.1993\n   „ab 14 Uhr beim „Neuen Deutschland“ vorbeischauen, denn in Innenhof, Foyer und Verlagsgebäude am Franz-Mehring-Platz feiern und diskutieren ND und die PDS Friedrichshain mit Lesern, Freunden und Gästen.”\n\n1994: Maifest der PDS Friedrichshain und Lichtenberg, 12:00 — Christa Luft; Günter Reisch; Ernst-Busch-Chor; Ensemble aus Wünsdorf\n   źródło: nd 27.04.1994\n   „Die PDS von Friedrichshain und Lichtenberg begrüßen ihre Gäste ab 12 Uhr vor und im ND-Gebäude am Franz-Mehring-Platz 1. Dabei sind Prof. Dr Christa Luft, der Regisseur Günter Reisch, ein Ensemble aus Wünsdorf, der Ernst-Busch-Chor, Zauberer, Puppenspieler und Musikanten.”",
    "Aktor": "PDS",
    "Dzielnica": "Friedrichshain",
    "Edycji opisanych": 2,
    "Zrodla": "ND 30.04.1993; nd 27.04.1994",
    "Precyzja": "adres",
    "Zrodlo punktu": "Franz-Mehring-Platz 1; polozenie rozpoznane z nazwy miejsca, nie z geokodera"
   }
  },
  {
   "type": "Feature",
   "geometry": {
    "type": "Point",
    "coordinates": [
     13.424466,
     52.502325
    ]
   },
   "properties": {
    "name": "Mariannenplatzfest",
    "Lata": "1997;2000;2005;2012;2017;2018;2019",
    "description": "1997: Mai-Veranstaltung der PDS auf dem Mariannenplatz, 15:00–21:00\n   źródło: ND 30.04.1997\n   „Weitere Mai-Veranstaltungen der PDS gibt es in den Bezirken: Kreuzberg, 15-21 Uhr, Mariannenplatz, Prenzlauer Berg, 10-18 Uhr, Humannplatz, Treptow, 14-18 Uhr, Springbornclub Johannisthal, Köpenick, 14-18 Uhr, Luisenhain, Marzahn, 13-18 Uhr, Alt-Marzahn 64, Hohenschönhausen, 10-17 Uhr, Oberseepark, Hellersdorf, 11-19 Uhr, Boulevard Kastanienallee.”\n\n2000: Bündnis-Mai-Feier auf dem Mariannenplatz, 13:00–21:00\n   źródło: ND 29.04.2000\n   „13-21 Uhr Bündnis-Mai-Feier, Mariannenplatz, Kreuzberg”\n\n2005: Maifest Mariannenplatz, 13:00\n   źródło: PDS Berlin, Termine 05.04.2005\n   „13 bis 22 Uhr: 1. Mai Fest auf dem Mariannenplatz Kreuzberg, u.a. mit Katina Schubert, Petra Pau und Pascal Meiser (ca.”\n\n2012: Fest der Linken auf dem Mariannenplatz, 14:00–19:00\n   źródło: Berliner Zeitung 30.04.2012\n   „19 Uhr auch das Fest der Linken statt, mit Ständen und Politik-Diskussionen. Auch die zentrale Kindersammelstelle”\n\n2017: 1. Mai-Fest auf dem Mariannenplatz, 13:00–20:00 — Katina Schubert\n   źródło: Newsletter Die Linke Berlin 21.04.2017\n   „13 bis 20 Uhr: 1.Mai-Fest auf dem Mariannenplatz, Kreuzberg (Landesvorsitzende Katina Schubert wird anwesend sein)”\n\n2018: 1. Mai Fest auf dem Mariannenplatz, 13:00–22:00 — Katina Schubert; Petra Pau; Pascal Meiser\n   źródło: ND\n   „13 bis 22 Uhr: 1. Mai Fest auf dem Mariannenplatz Kreuzberg, u.a. mit Katina Schubert, Petra Pau und Pascal Meiser (ca.”\n\n2019: 1. Mai Fest auf dem Mariannenplatz, 13:00 — Pascal Meiser; Katrin Lompscher; Martina Michels; Gregor Gysi\n   źródło: Newsletter Die Linke Berlin »Maifeierlichkeiten«\n   „13 bis 22 Uhr: 1. Mai Fest auf dem Mariannenplatz Kreuzberg, u.a. mit Katina Schubert, Petra Pau und Pascal Meiser (ca.”",
    "Aktor": "Die Linke;PDS",
    "Dzielnica": "Kreuzberg",
    "Edycji opisanych": 7,
    "Zrodla": "Berliner Zeitung 30.04.2012; ND; ND 29.04.2000; ND 30.04.1997; Newsletter Die Linke Berlin 21.04.2017; Newsletter Die Linke Berlin »Maifeierlichkeiten«; PDS Berlin, Termine 05.04.2005",
    "Precyzja": "mapa",
    "Zrodlo punktu": "obiekt „Mariannenplatz” z miejsca.csv"
   }
  },
  {
   "type": "Feature",
   "geometry": {
    "type": "Point",
    "coordinates": [
     13.4798,
     52.5157
    ]
   },
   "properties": {
    "name": "Markt am Rathaus Lichtenberg",
    "Lata": "2006;2010;2012;2017;2018;2019",
    "description": "2006: Familienfest am Rathaus, 12:00\n   źródło: info links (Die Linke Lichtenberg) 03/2006\n   „ab 12 Uhr: Frankfurter Allee/Möllendorffstraße Veranstaltungsort: *Alfred-Kowalke-Straße 14, **Ahrenshooper St…”\n\n2010: Sportfest »Der Gewalt einen Korb geben«, 12:00–18:00\n   źródło: info links (Die Linke Lichtenberg) 03/2010\n   „2 –18 Uhr Sportfest„DerGewalteinen Korbgeben “, FrankfurterAllee,EckeMöllendorffstraße G Sonnabend, 8 .5. 65 .JahrestagderB efreiung vom Faschis - m us, Kranzniederlegungen :”\n\n2012: Familiensportfest »Der Gewalt einen Korb geben«, 12:00–18:00\n   źródło: info links (Die Linke Lichtenberg) 03/2012\n   „12 – 18 Uhr: Familiensportfest „Der Gewalt einen Korb geben“; Möllendorffstraße”\n\n2017: Markt am Rathaus Lichtenberg, 11:00–18:00\n   źródło: Newsletter Die Linke Berlin 21.04.2017\n   „11 bis 18 Uhr: Markt am Rathaus Lichtenberg, Frankfurter Allee/Möllendorffstraße, u.a. mit Gesine Lötzsch”\n\n2018: Markt am Rathaus Lichtenberg, 11:00–18:00 — Gesine Lötzsch\n   źródło: ND\n   „11 bis 18 Uhr: Markt am Rathaus Lichtenberg, Frankfurter Allee/Möllendorffstraße, u.a. mit Gesine Lötzsch”\n\n2019: Spectaculum am lichten Berg, 12:00–18:00 — Sebastian Schlüsselburg; Hendrikje Klein; Gesine Lötzsch\n   źródło: Newsletter Die Linke Berlin; info links (Die Linke Lichtenberg) 05/2019\n   „11 bis 18 Uhr: Markt am Rathaus Lichtenberg, Frankfurter Allee/Möllendorffstraße, u.a. mit Gesine Lötzsch”",
    "Aktor": "Die Linke;Linkspartei",
    "Dzielnica": "Lichtenberg",
    "Edycji opisanych": 6,
    "Zrodla": "ND; Newsletter Die Linke Berlin 21.04.2017; Newsletter Die Linke Berlin; info links (Die Linke Lichtenberg) 05/2019; info links (Die Linke Lichtenberg) 03/2006; info links (Die Linke Lichtenberg) 03/2010; info links (Die Linke Lichtenberg) 03/2012",
    "Precyzja": "skrzyzowanie",
    "Zrodlo punktu": "Frankfurter Allee / Möllendorffstraße; polozenie rozpoznane z nazwy miejsca, nie z geokodera; poprawione po kontroli wielokatem dzielnicy"
   }
  },
  {
   "type": "Feature",
   "geometry": {
    "type": "Point",
    "coordinates": [
     13.60455,
     52.5369
    ]
   },
   "properties": {
    "name": "Multikulturelles Bündnisfest gegen Rechts",
    "Lata": "2000",
    "description": "2000: Multikulturelles Bündnisfest gegen Rechts, 11:00–20:00 — Gregor Gysi; Petra Pau\n   źródło: ND 29.04.2000\n   „20 Uhr multikulturelles Bündnisfest gegen Rechts, Alice-Salomon-Platz, Hellersdorf. Mit Gregor Gysi gegen”",
    "Aktor": "PDS",
    "Dzielnica": "Hellersdorf",
    "Edycji opisanych": 1,
    "Zrodla": "ND 29.04.2000",
    "Precyzja": "mapa",
    "Zrodlo punktu": "obiekt „2000 Kulturfest gegen Rechts” z mapy berlinskiej"
   }
  },
  {
   "type": "Feature",
   "geometry": {
    "type": "Point",
    "coordinates": [
     13.564,
     52.543
    ]
   },
   "properties": {
    "name": "Rot ist der Mai / Alt-Marzahn",
    "Lata": "1991;1992;1993;1996;1997;2000",
    "description": "1991: Maibaumklettern an der PDS-Geschäftsstelle, 13:00\n   źródło: rocznik DE 1991\n   „13:00 - Maibaumklettern vor der FDJS-Geschäftsstelle Alt-Marzahn 64”\n\n1992: Kiezfest Alt-Marzahn, 13:00 — Gregor Gysi\n   źródło: ND 30.04.1992\n   „ab 13 Uhr bei der Maifete iri Alt-Marzahn. Für die Kinder, stehen Maibaumklettern, Kremserfahrten, Basteln und Spielen auf dem Programm. Für die Größeren signieien Schriftsteller ihre Bücher, gibt es Infostände. Bezirkspolitiker wie Bürgermeister-Harald Buttler und PDS-Fra'itionschef in der BW Norbert Lüdtke sowie Abgeordnete de$ Bezirkes im Berliner Parlament wie Dagmar Pohle und Margit Barth, dazu Margitta Mächtig,”\n\n1993: Maifest an der PDS-Geschäftsstelle Alt-Marzahn, 13:00–23:00\n   źródło: ND 30.04.1993\n   „23 Uhr wird rund um die PDS-Geschäftsstelle Alt-Marzahn 64 gefeiert. Ein bunter Nachmittag steht in der PDS-Geschäftsstelle Wei-ßensee, Parkstraße 23”\n\n1996: Maifete »Rot ist der Mai«, 13:00 — Harald Buttler; Norbert Lüdtke\n   źródło: ND 30.04.1996\n   „ab 13 Uhr bei der Maifete iri Alt-Marzahn. Für die Kinder, stehen Maibaumklettern, Kremserfahrten, Basteln und Spielen auf dem Programm. Für die Größeren signieien Schriftsteller ihre Bücher, gibt es Infostände. Bezirkspolitiker wie Bürgermeister-Harald Buttler und PDS-Fra'itionschef in der BW Norbert Lüdtke sowie Abgeordnete de$ Bezirkes im Berliner Parlament wie Dagmar Pohle und Margit Barth, dazu Margitta Mächtig,”\n\n1997: Maifest Alt-Marzahn, 13:00–18:00\n   źródło: ND 30.04.1997\n   „13-18 Uhr, Alt-Marzahn 64, Hohenschönhausen,”\n\n2000: Kundgebungen der PDS Marzahn, 10:00–17:00\n   źródło: ND 29.04.2000\n   „10-17 Uhr Kundgebungen der PDS Mar zahn, Allee der Kosmonauten, Alt-Mar zahn, Freizeitforum Marzahn, S-Bahnhöfe Biesdorf, Poelchaustraße, Ahrensfelde”",
    "Aktor": "PDS",
    "Dzielnica": "Marzahn",
    "Edycji opisanych": 6,
    "Zrodla": "ND 29.04.2000; ND 30.04.1992; ND 30.04.1993; ND 30.04.1996; ND 30.04.1997; rocznik DE 1991",
    "Precyzja": "ulica",
    "Zrodlo punktu": "wies Alt-Marzahn, nr 64; polozenie rozpoznane z nazwy miejsca, nie z geokodera"
   }
  },
  {
   "type": "Feature",
   "geometry": {
    "type": "Point",
    "coordinates": [
     13.402,
     52.569
    ]
   },
   "properties": {
    "name": "Talk und Tanz in den 1. Mai",
    "Lata": "1992",
    "description": "1992 (30.04): Talk und Tanz in den 1. Mai, 18:00 — Kerstin Kaiser; André Brie\n   źródło: ND 30.04.1992\n   „ab 18 Uhr im Haus der PDS Pankow, Breite Straße 48, „Talk und Tanz in den 1. Mai“. Die Besucher erwartet ein Gespräch mit PDS-Kandidatinnen sowie mit Kerstin Kaiser und Andr§ Brie. Ebenfalls heute abend (”\n\n1992: Forum zu aktuellen Fragen der Politik, 16:00 — Hans Modrow\n   źródło: ND 30.04.1992\n   „Ab 16 Uhr findet im Haus der PDS Pankow.(Breite Straße 48) ein Forum zu aktuellen Fragen der Politik mit dem PDS-Ehrenvorsitzenden Hans Modrow, Mitglied des Bundestages, statt.”",
    "Aktor": "PDS",
    "Dzielnica": "Pankow",
    "Edycji opisanych": 2,
    "Zrodla": "ND 30.04.1992",
    "Precyzja": "adres",
    "Zrodlo punktu": "Breite Straße 48; polozenie rozpoznane z nazwy miejsca, nie z geokodera"
   }
  }
 ]
}