{
  "type": "FeatureCollection",
  "features": [
    {
      "type": "Feature",
      "geometry": {
        "type": "Point",
        "coordinates": [
          13.419032624098314,
          52.5430211
        ]
      },
      "properties": {
        "osm_type": "W",
        "osm_id": 24515082,
        "osm_key": "place",
        "osm_value": "square",
        "type": "other",
        "postcode": "10437",
        "countrycode": "DE",
        "name": "1990 Helmholtzplatz Walpurgisnacht Kundgebung",
        "country": "Germany",
        "city": "Berlin",
        "district": "Prenzlauer Berg",
        "locality": "Helmholtzkiez",
        "extent": [
          13.4173878,
          52.5438299,
          13.4206774,
          52.5421842
        ],
        "description": "1999 – Kundgebung Walpurgisnacht (rbb)",
        "Lata": "1999"
      }
    },
    {
      "type": "Feature",
      "geometry": {
        "coordinates": [
          13.416562,
          52.536169
        ],
        "type": "Point"
      },
      "properties": {
        "name": "1990 Walpurgisnacht",
        "Lata": "1990",
        "description": "\n*BDer Käthe-Kollwitz-Platz im Berliner Prenzlauer Berg ist auserwählt (!) für ein Spektakel, bei dem man und frau sich die Augen reiben werden in jenen sagenumwobenen dunklen Stunden zwischen dem 30. April und 1. Mai - der Walpurgisnacht. Da wird der Kolle also zum Hexentanzplatz und seine Namenpatin wäre sicher dafür und mittendrin, denn da streiten sehr irdische, sehr selbstbewußt-realistische Frauen um ihre derzeit in Frage gestellten, teils ziemlich bedrohten und teils noch nicht eingelösten Rechte. Die Aktion geht aber nicht zänkisch über den Platz, sondern mit Spaß, Witz, Wort, Musik und Spiel. Fraueninitiativen und -gruppen aus dem Ost- und Westteil Berlins haben dieses ketzerische Treffen organisiert. Und was seit einigen Jahren in Westberlin schon Sitte war, findet diesmal im Prenzl Berg statt.* (taz 7.04.1990)"
      }
    },
    {
      "type": "Feature",
      "geometry": {
        "coordinates": [
          [
            13.422128,
            52.548644
          ],
          [
            13.418083,
            52.53998
          ],
          [
            13.417277,
            52.536482
          ]
        ],
        "type": "LineString"
      },
      "properties": {
        "_umap_options": {
          "dashArray": "10"
        },
        "name": "1995 Demo (?)",
        "description": "*Nach Angaben der Polizei haben am Vorabend der 1. Mai 300 Jugendlichen von einem Fest auf der Humannplatz zum Kollwitzplatz gezogen* (rbb, 0:18)",
        "Lata": "1995",
        "Attendance": 300
      }
    },
    {
      "type": "Feature",
      "geometry": {
        "coordinates": [
          13.417018,
          52.536232
        ],
        "type": "Point"
      },
      "properties": {
        "name": "1996 Walpurgisnacht at Kollwitzplatz",
        "description": "1996 – festyn w noc Walpurgii organizowany przez władze lokalne, komercyjny; zamieszki od ok. 1\nAttendance: 10000 (JW)\n1996 – planowany koniec wspólnej, radykalnej i ML demonstracji. Bójki tuż przed Kollwitzplatz, rozbicie obu pochodów przez policję",
        "Lata": "1996",
        "Attendance": 10000
      }
    },
    {
      "type": "Feature",
      "geometry": {
        "coordinates": [
          13.417018,
          52.536232
        ],
        "type": "Point"
      },
      "properties": {
        "name": "1999. Walpurginsnacht",
        "description": "1999 – Walpurgisnacht Kollwitzplatz (rbb)\nPokojowy przebieg, żadnych zamieszek",
        "Lata": "1999",
        "Attendance": 10000
      }
    },
    {
      "type": "Feature",
      "geometry": {
        "type": "Point",
        "coordinates": [
          13.434948921203613,
          52.52729246882668
        ]
      },
      "properties": {
        "Lata": "2001",
        "description": "*\"Spontane\" Walpurgisfeiern sind für den Volkspark Friedrichshain (ab 20 Uhr) und für den Boxhagener Platz in Friedrichshain angekündigt.* (taz 30.04.2001, s. 24)",
        "name": "2001 Walpurgisnacht Spontane Street-Party"
      }
    },
    {
      "type": "Feature",
      "geometry": {
        "coordinates": [
          13.417018,
          52.536232
        ],
        "type": "Point"
      },
      "properties": {
        "name": "2001. Tanz in den Mai auf dem Kolle",
        "description": "rbb Walpurgisnacht und 1. Mai",
        "Lata": "2001",
        "Attendance": 10000
      }
    },
    {
      "type": "Feature",
      "geometry": {
        "coordinates": [
          [
            [
              13.403685,
              52.543503
            ],
            [
              13.404265,
              52.543895
            ],
            [
              13.403921,
              52.54413
            ],
            [
              13.402934,
              52.543895
            ],
            [
              13.402043,
              52.54505
            ],
            [
              13.405939,
              52.545637
            ],
            [
              13.405338,
              52.54685
            ],
            [
              13.401539,
              52.546491
            ],
            [
              13.399329,
              52.546302
            ],
            [
              13.40155,
              52.540958
            ],
            [
              13.401958,
              52.541069
            ],
            [
              13.402854,
              52.541262
            ],
            [
              13.403428,
              52.540521
            ],
            [
              13.404227,
              52.540733
            ],
            [
              13.405048,
              52.5409
            ],
            [
              13.404876,
              52.541037
            ],
            [
              13.405198,
              52.541356
            ],
            [
              13.404586,
              52.541989
            ],
            [
              13.403685,
              52.543503
            ]
          ]
        ],
        "type": "Polygon"
      },
      "properties": {
        "description": "1999 – Walpurgisnacht alternative to Kollwitzplatz, which was under heavy police occupation. \"Reclaim the Streets\" called people to Alexanderplatz; part of the crowd later moved to Prenzlauer Berg. Smaller clashes with police near Mauerpark. (1999_DE; LÖPA chronology)\n2000 – Walpurgisnacht celebrated peacefully. Commercially organised festivals at both Kollwitzplatz and Mauerpark, coordinated with police. Thousands of participants; police presence barely noticeable. (2000_DE; LÖPA chronology)\n2001 – Walpurgisnacht peaceful. Police had difficulty finding an organiser for the Mauerpark festival due to its reputation for uncontrolled crowds; threats from left-wing groups against potential organisers. Festival took place nonetheless. (2001_DE; LÖPA chronology)\n2002 – ~7,000 participants, peaceful until midnight. When firefighters were blocked from extinguishing a large fire on Eberswalder Straße, police cleared the street with water cannons and tear gas. First injuries reported; a young woman hit by a thrown bottle. (2002_DE; LÖPA chronology)\n2003 – ~8,000 participants. Shortly after midnight, stone-throwing against police began; police entered from the north using water cannons, batons, and tear gas. Clashes continued between Schönhauser Allee, Eberswalder Straße, and Oderberger Straße until around 3:00 AM. A Johanniter-Unfallhilfe ambulance was stolen during the unrest. (2003_DE; LÖPA chronology)",
        "Lata": "1999, 2000, 2001, 2002",
        "name": "Mauerpark Walpurgisplatz"
      }
    },
    {
      "type": "Feature",
      "geometry": {
        "coordinates": [
          [
            [
              13.403685,
              52.543503
            ],
            [
              13.401898,
              52.543281
            ],
            [
              13.402269,
              52.54272
            ],
            [
              13.402854,
              52.541262
            ],
            [
              13.403428,
              52.540521
            ],
            [
              13.404227,
              52.540733
            ],
            [
              13.405048,
              52.5409
            ],
            [
              13.404876,
              52.541037
            ],
            [
              13.405198,
              52.541356
            ],
            [
              13.404586,
              52.541989
            ],
            [
              13.403685,
              52.543503
            ]
          ]
        ],
        "type": "Polygon"
      },
      "properties": {
        "description": "## 2001\nFamily festival organised by the Turnerjugend (youth organisation of the Berliner Turnerbund), with police participation: a cheerleader group from the police sports club performed at the event. Programme included bouncy castle, skill games, health information stands, a petting zoo, and a lantern procession. The police's original plan — a large rock concert — had failed due to lack of funding and neighbourhood resistance. Simultaneously, the police organised a youth football tournament at the adjacent Friedrich-Ludwig-Jahn-Sportpark. (Tagesspiegel 17.04.2001)\n*Heißer ging es im Mauerpark in Prenzlauer Berg zu. Die auf Initiative der Polizei vom Turnerbund am Nachmittag dort aufgestellten Hüpfburgen wurden von den Parkbesuchern weit gehend ignoriert. Erst in der Nacht drängelten sich 6.000 Menschen um zahlreiche Lagerfeuer und Trommler. Die Polizei griff selbst dann nicht ein, als sich gegen 23.30 Uhr einige Leute auf die Eberswalder Straße setzten. Stattdessen sperrte sie die Straße für den Durchgangsverkehr. Erst gegen 0:30 Uhr drohte kurzfistig eine Eskalation. Als Beamte einen pöbelnden Passanten nahe der Schönhauser Allee brutal zu Boden warfen, flogen erste Flaschen. Innerhalb von Minuten kamen Mannschaftswagen und Wasserwerfer herangeeilt. Die Polizei verzichtete aber darauf, Richtung Mauerpark vorzurücken. Weitere Festnahmen Angetrunkener waren umstritten. \"Fünf Mann auf eine Frau, was seid ihr für Helden\", kommentierte ein Polizist die Arbeit seiner Kollegen. Auf dem Gewerbegelände neben dem Mauerpark ging gegen 1.45 Uhr eine Baracke in Flammen auf. Ob es einen Zusammenhang mit den Lagerfeuern im Park gab, war gestern noch unklar. Heftige Zusammenstöße zwischen Polizei und Feiernden gab es nur in Friedrichshain.*\n\nAttendance: 15000 (BM 2001)\n\n## 2002\n ~7,000 participants, peaceful until midnight. When firefighters were blocked from extinguishing a large fire on Eberswalder Straße, police cleared the street with water cannons and tear gas. First injuries reported; a young woman hit by a thrown bottle.\n\n*“Bereits am Vorabend des 1. Mai, in der Walpurgisnacht, war es in Berlin zu den schwersten Krawallen seit Jahren gekommen. In Prenzlauer Berg entzündeten mehrere hundert Randalierer nach einem Fest im Mauerpark ein großes Feuer auf einer Straße. Als die anrückende Feuerwehr angegriffen wurde, räumten Polizisten unter Steinwürfen die Straße. Am Kreuzberger Oranienplatz plünderten Vermummte nach einem Konzert einen Supermarkt. Die anrückende Polizei musste auch hier wegen Steinwürfen zunächst zurückweichen, bevor sie die Lage unter Kontrolle brachte. Laut Augenzeugenberichten hatten sich die Beamten während der Nacht weitgehend zurückgehalten” (“taz. Tageszeitung 2002 1. Mai”, 2002)*\n (2002_DE; LÖPA chronology)\n\n## 2003\n~8,000 participants. Shortly after midnight, stone-throwing against police began; police entered from the north using water cannons, batons, and tear gas. Clashes continued between Schönhauser Allee, Eberswalder Straße, and Oderberger Straße until around 3:00 AM. A Johanniter-Unfallhilfe ambulance was stolen during the unrest. (2003_DE; LÖPA chronology)\n\n## 2004\nPolice introduced a total ban on glass bottles and cans; all drinks had to be transferred to plastic cups at the park entrance. Festival restricted to the northern part of the park; Eberswalder Straße excluded from the event area. Parking ban between Eberswalder Straße, Gleimstraße and Falkplatz from 8:00 AM. (Tagesspiegel 14.04.2004)\n\n## 2012\nAm Mauerpark in Prenzlauer Berg feierten bis zu 2000 Menschen ausgesprochen friedlich. Für den Park galt auch diesmal wieder ein Flaschen- und Dosenverbot. (BM, 1.05.2012)\nAttendance: 2000 (BM)\n\n## 2015\n*21.00 Uhr – Im Mauerpark wird getanzt: Hartgesottene Feierleute lassen sich vom Regenwetter doch nicht die Laune verderben. Einige hundert Menschen - laut Polizei sollen es 400 sein - tanzen im Mauerpark zu den Platten der DJs vom \"Dub der guten Hoffnung\". Nach Angaben der Veranstalter soll das große Lagerfeuer den Regen überstanden haben; in wenigen Minuten soll es eine Feuershow geben.* (TsG)\nAttendance: 400 (Tsg)\n\n\n## 2019\nno festival due to noise complaints of the neighbors",
        "Lata": "2001, 2002, 2003, 2004, 2005, 2006, 2007, 2008, 2009, 2010, 2011, 2012, 2013, 2014, 2015, 2016, 2017, 2018",
        "name": "Mauerpark Walpurgisplatz"
      }
    },
    {
      "type": "Feature",
      "geometry": {
        "type": "Point",
        "coordinates": [
          13.3808123,
          52.4874665
        ]
      },
      "properties": {
        "osm_type": "W",
        "osm_id": 4638994,
        "osm_key": "leisure",
        "osm_value": "park",
        "type": "other",
        "name": "Viktoriapark",
        "district": "Kreuzberg",
        "city": "Berlin",
        "country": "Germany",
        "countrycode": "DE",
        "extent": [
          13.3768507,
          52.4897907,
          13.384779,
          52.4851403
        ],
        "Lata": "2006, 2007, 2008, 2009, 2010, 2011, 2012, 2013, 2014, 2015, 2017, 2018, 2019",
        "description": "## 2006\nRangeleien mit der Polizei gab es auch im Kreuzberger Viktoriapark, wo Jugendliche ein Feuer angezündet hatten. \"Da waren 200 Leute, zum Teil vermummt, die dachten, da entwickelt sich was\", sagte ein Polizeisprecher. Völlig ruhig blieb es dagegen im Mauerpark in Prenzlauer Berg. Wer in den Park wollte, musste sein Bier in Becher umschütten. Weil die Berliner Polizei ohnehin nicht mit Ausschreitungen rechnete, hatte sie die Einlasskontrollen an die Brandenburger Polizei übergeben.\n## 2007\nm Viktoriapark seien in derselben Nacht mehrere Feuer festgestellt worden, an denen sich teilweise bis zu\n800 Personen aufgehalten hätten. Es sei nicht zu Störungen gekommen. Die Feuer habe die Feuerwehr löschen können. Polizeiliche Platzverweisungen hätten auch hier zu einem friedlichen Ende der Walpurgisnacht geführt. (Polizeibericht in Abgeordnetenhaus)\n\n## 2008\n21.00 Uhr, Viktoria-Park: Rund 500 Menschen versammeln sich auf dem Kreuzberg. Einige zünden ein Feuer, Polizisten löschen es. Dies wiederholt sich sechs Mal. Dann gibt die Polizei auf und lässt das Feuer brennen.\n\n## 2009\n*Im Gegensatz zur Veranstaltung in Friedrichshain verliefen die Feiern im Mauerpark im Stadtteil Prenzlauer Berg und im Kreuzberger Viktoriapark nach Polizeiangaben friedlich. Die Anhänger der militanten linken Szene in Berlin halten die Polizei bereits seit Wochen in Atem.* (merkur.de)\n\n## 2010\n\n23.23 Uhr: Im benachbarten Kreuzberg feiern 2000 Menschen im Viktoriapark. Ein Walpurgisnachtfeuer wurde von der Feuerwehr gelöscht. Die Stimmung ist friedlich. (BZ)\n\n## 2011\n\"Im Kreuzberger Viktoriapark, in dem sich rund 800 Menschen versammelt hatten, musste die Polizei hingegen mehrfach einschreiten, weil ab etwa 22 Uhr immer wieder Feuer entfacht und Polizisten mit Flaschen oder Feuerwerkskörpern beworfen wurden.\"\nhttps://www.tagesspiegel.de/berlin/58-festnahmen-25-verletzte-beamte-6447214.html\n\n## 2012\n\"Im Viktoriapark in Kreuzberg hatten sich bis zu 600 Personen versammelt. Gegen 22 Uhr 45 sind mehrere Kleinfeuer entzündet worden, die von Polizeibeamten gelöscht wurden.\"\n\nAttendance: 600 (Berliner Morgenpost)\n\nhttps://www.xhain.net/polizeiticker/2012/walpurgisnacht-2012-polizei-zieht-bilanz\n\n## 2013\n\"Im Kreuzberger Viktoriapark hielten sich bis zu 3000 Personen auf, im Görlitzer Park in Kreuzberg sowie im Volkspark Friedrichshain und am Boxhagener Platz im selben Stadtteil hatten sich insgesamt mehrere Hun[dert Personen versammelt]\"\n\nhttps://www.xhain.net/polizeiticker/2013/walpurgisnacht-2013-bilanz-der-polizei\n\n## 2014\n*Etwa 1000 Menschen hatten sich laut Polizei im Viktoriapark getroffen, um die Walpurgisnacht zu feiern. An verschiedenen Stellen wurden Lagerfeuer entzündet, die von der Polizei gelöscht wurden. Gegen 22.50 Uhr kippte die Stimmung; Flaschen flogen in Richtung Polizei. Die Polizeibeamten setzten Pfefferspray gegen die Flaschenwerfer ein, nach Angaben eines Polizeisprechers gab es 15 vorläufige Festnahmen. Mehrere Ermittlungsverfahren wegen Widerstands gegen Polizeibeamte und gefährlicher Körperverletzung wurden eingeleitet. Die Verdächtigen sind aber mittlerweile alle wieder auf freiem Fuß.* (tagesspiegel, 2.05.2014)\n\n## 2015\n*In der Nacht zuvor versammelten sich im Mauerpark in Prenzlauer Berg laut Polizei 500 Menschen friedlich. Auch im Viktoriapark und im Görlitzer Park trafen sich Hunderte Menschen.* (taz 2015)\n\n\n\n## 2016\nno confirmation\n\n## 2017 \nAuch die Feiern in den Parks der Stadt blieben friedlich. Lediglich im Viktoriapark in Kreuzberg musste die Polizei mehrere Lagerfeuer löschen. Da die anwesenden etwa 400 Parkbesucher mit dem Feiern nicht aufhören wollten und immer wieder neue Feuer entfachten, beendeten die Polizisten das Geschehen. (xhain.net)\n\nAttendance:\n400 (police via TsG)\n\n## 2018\nMehrere tausend Menschen feierten die Walpurgisnacht in den verschiedenen Parks der Stadt, wie zum Beispiel im Mauerpark, Görlitzer Park, Monbijoupark und Volkspark Friedrichshain, völlig friedlich. Lediglich im Viktoriapark löschten Einsatzkräfte ein paar kleine Lagerfeuer. (xhain.net)\n\n## 2019\nAuch im Viktoriapark in Kreuzberg gab es kleinere Walpurgisfeiern, womit nach altem Brauch der Winter vertrieben wird. (WELT)  "
      }
    },
    {
      "type": "Feature",
      "geometry": {
        "coordinates": [
          13.434995,
          52.497312
        ],
        "type": "Point"
      },
      "properties": {
        "Lata": "2015",
        "description": "## 2012\n\nim Görlitzer Park in Kreuzberg feierten bis zu 900 Personen das \"Hexenfest\"\n\n## 2015\n\n*Im Görlitzer Park in Kreuzberg, im Viktoriapark im selben Stadtteil, sowie im Treptower Park im gleichnamigen Bezirk hatten sich insgesamt mehrere Hundert Personen versammelt und ebenfalls friedlich in den Mai gefeiert.* (2015)",
        "name": "Walpurgisnacht in Görli"
      }
    },
    {
      "type": "Feature",
      "geometry": {
        "type": "Point",
        "coordinates": [
          13.411688804626467,
          52.54039722388597
        ]
      },
      "properties": {
        "name": "1998 – Freiheit ist immer auch die Freiheit des Andersdenkenden",
        "description": "*Unterdessen hat auch eine Gruppe namens \"Ratten und Gesindel\" zu einer Demo am Vorabend des 1. Mai in Prenzlauer Berg aufgerufen. Dies sei allerdings keine Walpurgisnacht-Veranstaltung, sondern eine Demo gegen den polizeilichen Belagerungszustand in Prenzlauer Berg im vergangenen Jahr. Die Demo am 30. April beginnt um 17 Uhr am U-Bahnhof Eberswalder Straße.* (taz 30.04.98)\n",
        "Lata": "1998"
      }
    },
    {
      "type": "Feature",
      "geometry": {
        "coordinates": [
          [
            13.388343,
            52.519864
          ],
          [
            13.388793,
            52.517017
          ],
          [
            13.390575,
            52.517135
          ],
          [
            13.39257,
            52.517265
          ],
          [
            13.391647,
            52.522736
          ],
          [
            13.393621,
            52.526418
          ],
          [
            13.402593,
            52.528063
          ],
          [
            13.401326,
            52.529668
          ]
        ],
        "type": "LineString"
      },
      "properties": {
        "Lata": "2004",
        "name": "2004 – Kommunismus statt Europa",
        "description": "Start: 18 Uhr 30.04 (Tagesspiegel 2004, Route sowohl)\nU-Bhf Friedrichstrasse- Unter den Linden - Universitätstrasse - Tucholskystrasse - Augustrstrasse - Rosenthalerplatz\n\n*FREITAG 19:00, S-Bahnhof Friedrichstraße: Ein Sprecher begrüßt die rund 1.500 Anwesenden zur ersten Demo des 1. Mai unter dem Motto \"Kommunismus statt Europa\". Er erklärt die EU zum Zusammenschluss kapitalistischer Nationalstaaten, die Weltmacht spielen wollen.* (taz ticker)"
      }
    },
    {
      "type": "Feature",
      "geometry": {
        "coordinates": [
          13.453789,
          52.51577
        ],
        "type": "Point"
      },
      "properties": {
        "description": "Kundgebung um 16 Uhr am Frankfurter Tor mit anschließender Demonstration",
        "Lata": "2005",
        "name": "2005 – Berlin protestiert friedlich – für friedlichen Protest gegen Gewalt“"
      }
    },
    {
      "type": "Feature",
      "geometry": {
        "coordinates": [
          [
            13.453716,
            52.515646
          ],
          [
            13.431386,
            52.518311
          ],
          [
            13.428105,
            52.51852
          ],
          [
            13.416473,
            52.522071
          ],
          [
            13.412225,
            52.524133
          ],
          [
            13.415744,
            52.527214
          ]
        ],
        "type": "LineString"
      },
      "properties": {
        "_umap_options": {
          "dashArray": "10"
        },
        "name": "2005 Berlin protestiert friedlich –  Für friedlichen Protest gegen Gewalt",
        "Lata": "2005",
        "description": "**16:00 – Demo: Frankfurter Tor → Prenzlauer Allee** Motto: „Berlin protestiert friedlich – Für friedlichen Protest gegen Gewalt\" (ND 29.04.2005)"
      }
    },
    {
      "type": "Feature",
      "geometry": {
        "coordinates": [
          [
            13.423232,
            52.500235
          ],
          [
            13.426838,
            52.499164
          ],
          [
            13.431473,
            52.499347
          ],
          [
            13.438984,
            52.500445
          ],
          [
            13.442202,
            52.500967
          ],
          [
            13.444519,
            52.500901
          ],
          [
            13.446794,
            52.502561
          ],
          [
            13.450356,
            52.507759
          ],
          [
            13.452673,
            52.512355
          ],
          [
            13.459282,
            52.511259
          ]
        ],
        "type": "LineString"
      },
      "properties": {
        "description": "*Am selben Abend in der Zeit von 20 Uhr bis kurz vor 22 Uhr habe ein Aufzug mit rd. 900 Personen vom\nHeinrichplatz zum Boxhagener Platz stattgefunden. Die Teilnehmer des Aufzugs hätten sich unter die Teil-\nnehmer der Kundgebung gemischt, die – gepaart mit einer Musikveranstaltung – am Boxhagener Platz bis\nca. 22 Uhr stattgefunden habe. Insgesamt hätten an der Veranstaltung 1 500 Personen teilgenommen. Nach\nBeendigung der Veranstaltung sei es dann gegen 23 Uhr – zum Teil sehr heftig – zu Flaschen- und Steinwür-\nfen auf Polizeibeamte gekommen. Durch gezielte Festnahmen und konsequenten Zugriff habe die Situation\njedoch bis ca. 1 Uhr nachts beruhigt werden könne* (Senat Polizeibericht)\n\nAttendance:\n900 (police)",
        "Lata": "2007",
        "name": "2007 Walpurgisnacht Demo",
        "_umap_options": {
          "dashArray": "10"
        },
        "Attendance": 1500
      }
    },
    {
      "type": "Feature",
      "geometry": {
        "coordinates": [
          [
            13.401338,
            52.529745
          ],
          [
            13.401959,
            52.52896
          ],
          [
            13.403074,
            52.52896
          ],
          [
            13.405146,
            52.528748
          ],
          [
            13.405603,
            52.529802
          ],
          [
            13.405839,
            52.530523
          ],
          [
            13.406186,
            52.532148
          ],
          [
            13.408913,
            52.531209
          ],
          [
            13.41091,
            52.533219
          ],
          [
            13.408218,
            52.53425
          ],
          [
            13.407209,
            52.534648
          ],
          [
            13.406726,
            52.535627
          ],
          [
            13.409754,
            52.538544
          ],
          [
            13.411614,
            52.537859
          ],
          [
            13.412802,
            52.538042
          ],
          [
            13.415164,
            52.538459
          ],
          [
            13.417612,
            52.538316
          ],
          [
            13.417247,
            52.536717
          ],
          [
            13.418375,
            52.536567
          ],
          [
            13.421649,
            52.539634
          ],
          [
            13.416346,
            52.540423
          ],
          [
            13.414328,
            52.540802
          ],
          [
            13.417183,
            52.543294
          ],
          [
            13.415659,
            52.543842
          ],
          [
            13.412502,
            52.541115
          ]
        ],
        "type": "LineString"
      },
      "properties": {
        "Lata": "2011",
        "description": "2011 – 30.4, 16:30. Wir bleiben alle, Rosenthaler Platz- Danziger Strasse. Koniec blikso Mauerparku (taz 30.4)\nAttendance: 700 (taz)",
        "name": "2011 Walpurgisnacht \"Wir Bleiben Alle!\"",
        "Attendance": 700
      }
    },
    {
      "type": "Feature",
      "geometry": {
        "coordinates": [
          [
            13.363981,
            52.543643
          ],
          [
            13.361231,
            52.541813
          ],
          [
            13.361971,
            52.541011
          ],
          [
            13.361039,
            52.540704
          ],
          [
            13.359161,
            52.542642
          ],
          [
            13.357069,
            52.542146
          ],
          [
            13.351246,
            52.541037
          ],
          [
            13.349368,
            52.542192
          ],
          [
            13.347297,
            52.543777
          ],
          [
            13.35013,
            52.545226
          ],
          [
            13.353928,
            52.547229
          ],
          [
            13.350515,
            52.54946
          ],
          [
            13.352039,
            52.550399
          ],
          [
            13.35251,
            52.550093
          ],
          [
            13.365283,
            52.542962
          ]
        ],
        "type": "LineString"
      },
      "properties": {
        "Lata": "2012",
        "description": "Demoroute: Burgsdorfstraße, Lynarstraße, Sparrplatz, Sprengelstraße, U Amrumer Straße, Ostender Straße, Genter Straße, U Seestraße, Müllerstraße, U-Bahnhof Wedding\nAttendance: \n3300 (BM 1.05.2012)\n6000 (organisers, Aufruf 2013)",
        "name": "2012 antikapitalistische Walpurgisnahcht",
        "Attendance": 4650
      }
    },
    {
      "type": "Feature",
      "geometry": {
        "type": "LineString",
        "coordinates": [
          [
            13.386551,
            52.549597
          ],
          [
            13.381585,
            52.552298
          ],
          [
            13.379604,
            52.552898
          ],
          [
            13.377158,
            52.551339
          ],
          [
            13.378462,
            52.550471
          ],
          [
            13.376263,
            52.549153
          ],
          [
            13.373784,
            52.547685
          ],
          [
            13.372067,
            52.54871
          ],
          [
            13.373601,
            52.550693
          ],
          [
            13.371155,
            52.551606
          ],
          [
            13.370318,
            52.550863
          ],
          [
            13.368516,
            52.550158
          ],
          [
            13.368216,
            52.550093
          ],
          [
            13.368645,
            52.549205
          ],
          [
            13.369192,
            52.54838
          ],
          [
            13.366692,
            52.548279
          ],
          [
            13.366982,
            52.544867
          ],
          [
            13.361928,
            52.544841
          ],
          [
            13.360963,
            52.545441
          ],
          [
            13.359171,
            52.546394
          ],
          [
            13.363109,
            52.548749
          ],
          [
            13.359547,
            52.550706
          ],
          [
            13.357905,
            52.5501
          ],
          [
            13.355619,
            52.548468
          ],
          [
            13.352294,
            52.55038
          ]
        ]
      },
      "properties": {
        "_umap_options": {
          "dashArray": "10"
        },
        "Lata": "2013",
        "name": "2013 Walpurgisnacht take back the city",
        "description": "Badstraße (start marszu ok. 20:57, Behmstraße/Badstraße)\nButtmannstraße (skręt w lewo ok. 21:06)\nPankstraße (wysokość Abschnitt 36 / Polizeidirektion 3 ok. 21:17)\nWiesenstraße (akcje na dachach w trakcie przejścia)\nSchererstraße (róg Adolfstraße, Zwischenkundgebung ok. 21:41, obok Scherer8)\nMüllerstraße (róg Utrechter Straße ok. 22:11)\nSeestraße (koniec demonstracji przy U-Bahnhof Seestraße ok. 22:25) (BZ 30.04.2013)\n(Tagesspiegel 28.04.2013)\nAttendance:\n2500 (taz)\n2500 (police via taz)",
        "Attendance": 2500
      }
    },
    {
      "type": "Feature",
      "geometry": {
        "coordinates": [
          [
            13.351976,
            52.550432
          ],
          [
            13.349163,
            52.55205
          ],
          [
            13.34766,
            52.551058
          ],
          [
            13.354252,
            52.547079
          ],
          [
            13.357169,
            52.545213
          ],
          [
            13.358897,
            52.543993
          ],
          [
            13.35631,
            52.543262
          ],
          [
            13.356879,
            52.542198
          ],
          [
            13.359208,
            52.542701
          ],
          [
            13.361044,
            52.540723
          ],
          [
            13.36186,
            52.541056
          ],
          [
            13.361044,
            52.541781
          ],
          [
            13.363922,
            52.543608
          ],
          [
            13.361828,
            52.544847
          ],
          [
            13.35923,
            52.546341
          ],
          [
            13.364276,
            52.549669
          ],
          [
            13.366703,
            52.548266
          ],
          [
            13.369171,
            52.548387
          ],
          [
            13.369359,
            52.546146
          ],
          [
            13.369493,
            52.545705
          ],
          [
            13.369461,
            52.54548
          ],
          [
            13.370513,
            52.545232
          ],
          [
            13.370218,
            52.544652
          ],
          [
            13.374148,
            52.543686
          ],
          [
            13.376427,
            52.543073
          ],
          [
            13.377645,
            52.544045
          ],
          [
            13.378563,
            52.544782
          ],
          [
            13.37395,
            52.547614
          ],
          [
            13.378524,
            52.550458
          ],
          [
            13.377182,
            52.551319
          ],
          [
            13.379662,
            52.552865
          ],
          [
            13.381584,
            52.552311
          ]
        ],
        "type": "LineString"
      },
      "properties": {
        "Lata": "2014",
        "description": "2014 – trasa za taz 30.4\nAttendance: 3000 (nd liveticker)\n2900 (police via taz)",
        "name": "2014 Antikapitalistische Walpurgisnacht",
        "Attendance": 3000
      }
    },
    {
      "type": "Feature",
      "geometry": {
        "coordinates": [
          [
            13.359258,
            52.546309
          ],
          [
            13.358002,
            52.546896
          ],
          [
            13.363177,
            52.550256
          ],
          [
            13.364691,
            52.549395
          ],
          [
            13.366677,
            52.548214
          ],
          [
            13.368621,
            52.548377
          ],
          [
            13.3689,
            52.548377
          ],
          [
            13.369233,
            52.548207
          ],
          [
            13.371981,
            52.54869
          ],
          [
            13.373927,
            52.547529
          ],
          [
            13.381318,
            52.552402
          ],
          [
            13.38715,
            52.549153
          ],
          [
            13.388664,
            52.547698
          ],
          [
            13.389136,
            52.547144
          ],
          [
            13.390854,
            52.547183
          ],
          [
            13.394192,
            52.547395
          ],
          [
            13.395257,
            52.546159
          ],
          [
            13.398178,
            52.542309
          ],
          [
            13.399423,
            52.542609
          ],
          [
            13.401613,
            52.539797
          ],
          [
            13.40259,
            52.538518
          ],
          [
            13.404867,
            52.53921
          ],
          [
            13.405832,
            52.53733
          ],
          [
            13.406367,
            52.536286
          ],
          [
            13.405616,
            52.536169
          ],
          [
            13.404306,
            52.535033
          ],
          [
            13.403361,
            52.535164
          ],
          [
            13.403018,
            52.534681
          ],
          [
            13.403533,
            52.533871
          ],
          [
            13.404537,
            52.534139
          ],
          [
            13.405144,
            52.534035
          ],
          [
            13.412121,
            52.541014
          ]
        ],
        "type": "LineString"
      },
      "properties": {
        "Lata": "2015",
        "description": "2015 Antikapitalistische Walpurgisnacht. Trasa za taz 30.4. Start: 18:30\n\n*Straftaten wurden nur vereinzelt begangen, berichtete Polizeipräsident Klaus Kandt. In der Walpurgisnacht habe es 15 Festnahmen gegeben. \"Am Rande der Gegendemonstration zu den beiden NPD-Kundgebungen am Vormittag des 1. Mai wurden acht Verdächtige wegen gefährlicher Körperverletzung und Widerstands gegen Vollstreckungsbeamte festgenommen\", sagte Kandt.* (Berliner Zeitung)\n\nDue to rain, no end-rally (Bz-Berlin.de)\n\n*21.48 Uhr - Veranstalterbilanz: \"Gute, laute Demonstration\": Am U-Bahnhof Eberswalder Straße findet derzeit die Abschlussveranstaltung der \"Antikapitalistischen Walpurgisnacht\" statt. Laut Veranstalter waren zwischen 5000 und 7000 Menschen auf der Straße. Sprecher Martin Steinburg zeigte sich in einer ersten Bilanz zufrieden: \"Wir sind gut durchgekommen und hatten eine gute, laute Demonstration.\" Steinburg zufolge wollen die Veranstalter den 30. April als \"Kampftag der Mieterinnen und Mieter\" etablieren und ihre Proteste auch im nächsten Jahr fortsetzen.* (Tagesspiegel)\n\nAttendance:\n6000 (organisers via Tsg)\n2500 (police via Tsg) – according to Tsg, closer to the truth",
        "name": "2015 Antikapitalistische Walpurgisnacht",
        "Attendance": 4000
      }
    },
    {
      "type": "Feature",
      "geometry": {
        "coordinates": [
          [
            13.373507,
            52.556897
          ],
          [
            13.375869,
            52.555031
          ],
          [
            13.377061,
            52.553798
          ],
          [
            13.37807,
            52.553224
          ],
          [
            13.378575,
            52.552931
          ],
          [
            13.379466,
            52.552865
          ],
          [
            13.377007,
            52.5513
          ],
          [
            13.378446,
            52.550504
          ],
          [
            13.381388,
            52.552285
          ],
          [
            13.383492,
            52.55145
          ],
          [
            13.386251,
            52.553387
          ],
          [
            13.388388,
            52.552043
          ],
          [
            13.390256,
            52.553133
          ],
          [
            13.391781,
            52.552507
          ],
          [
            13.391319,
            52.551143
          ],
          [
            13.391336,
            52.550178
          ],
          [
            13.392425,
            52.549219
          ],
          [
            13.393434,
            52.548207
          ],
          [
            13.394282,
            52.547418
          ],
          [
            13.396752,
            52.547555
          ],
          [
            13.397868,
            52.546263
          ],
          [
            13.395517,
            52.546061
          ],
          [
            13.396977,
            52.543973
          ],
          [
            13.398136,
            52.542185
          ],
          [
            13.393761,
            52.541167
          ],
          [
            13.396046,
            52.538231
          ]
        ],
        "type": "LineString"
      },
      "properties": {
        "Lata": "2016",
        "description": "2016 Walpurgisnacht Demo – Osloer Strasse–Bernauer Brucke (taz 30.4)\nAttendance: 2300 (police, nd-aktuell)",
        "name": "2016 Walpurgisnacht Demo",
        "Attendance": 2300
      }
    },
    {
      "type": "Feature",
      "geometry": {
        "coordinates": [
          [
            13.359108,
            52.546478
          ],
          [
            13.355587,
            52.548436
          ],
          [
            13.353976,
            52.547196
          ],
          [
            13.350583,
            52.549506
          ],
          [
            13.35224,
            52.550412
          ],
          [
            13.353976,
            52.549421
          ],
          [
            13.356349,
            52.550843
          ],
          [
            13.357702,
            52.551802
          ],
          [
            13.360855,
            52.550028
          ],
          [
            13.361866,
            52.549453
          ],
          [
            13.360879,
            52.548736
          ],
          [
            13.362081,
            52.548038
          ],
          [
            13.364314,
            52.549571
          ],
          [
            13.367304,
            52.551371
          ],
          [
            13.369715,
            52.553015
          ],
          [
            13.371422,
            52.553961
          ],
          [
            13.372667,
            52.554098
          ],
          [
            13.37475,
            52.55385
          ],
          [
            13.376543,
            52.553583
          ],
          [
            13.377048,
            52.553694
          ],
          [
            13.373644,
            52.556668
          ],
          [
            13.377037,
            52.556492
          ],
          [
            13.37722,
            52.553811
          ],
          [
            13.378025,
            52.553322
          ],
          [
            13.37959,
            52.552888
          ],
          [
            13.377139,
            52.551254
          ],
          [
            13.378438,
            52.55038
          ],
          [
            13.379421,
            52.549701
          ],
          [
            13.382419,
            52.551789
          ],
          [
            13.383637,
            52.551133
          ],
          [
            13.385285,
            52.550191
          ],
          [
            13.386499,
            52.549577
          ],
          [
            13.388499,
            52.548005
          ]
        ],
        "type": "LineString"
      },
      "properties": {
        "Lata": "2017",
        "description": "2017 Walpurgisnacht Demo. Trasa za TAZ\nSlogan: Selbstorganisiert gegen Rassismus und soziale Ausgrenzung\nAttendance:\n3000 (police via TsG)\n4000 (organisers via Tsg)",
        "name": "2017 Walpurgisnacht Demo",
        "Attendance": 3500
      }
    },
    {
      "type": "Feature",
      "geometry": {
        "coordinates": [
          [
            13.352188,
            52.550341
          ],
          [
            13.355689,
            52.548292
          ],
          [
            13.359114,
            52.546387
          ],
          [
            13.36154,
            52.547959
          ],
          [
            13.358373,
            52.549754
          ],
          [
            13.356311,
            52.551013
          ],
          [
            13.357696,
            52.551795
          ],
          [
            13.360155,
            52.551945
          ],
          [
            13.362066,
            52.551978
          ],
          [
            13.36519,
            52.552069
          ],
          [
            13.366961,
            52.552161
          ],
          [
            13.367843,
            52.550608
          ],
          [
            13.368251,
            52.550132
          ],
          [
            13.37014,
            52.550784
          ],
          [
            13.370763,
            52.551208
          ],
          [
            13.371203,
            52.551561
          ],
          [
            13.372728,
            52.550947
          ],
          [
            13.373791,
            52.550595
          ],
          [
            13.375083,
            52.549936
          ],
          [
            13.375855,
            52.550758
          ],
          [
            13.376121,
            52.550863
          ],
          [
            13.376711,
            52.550967
          ],
          [
            13.377634,
            52.551554
          ],
          [
            13.379771,
            52.552865
          ],
          [
            13.379707,
            52.553022
          ],
          [
            13.379008,
            52.552989
          ],
          [
            13.377891,
            52.553172
          ],
          [
            13.377118,
            52.553798
          ],
          [
            13.376967,
            52.556499
          ]
        ],
        "type": "LineString"
      },
      "properties": {
        "Lata": "2018",
        "description": "2018 Walpurgisnacht Demonstration. Trasa na podstawie mapki taz \nAttendance:\n2000 (police, via taz)\n4000 (organisers, via taz)",
        "name": "2018 Walpurgisnacht Demo",
        "Attendance": 3000
      }
    },
    {
      "type": "Feature",
      "geometry": {
        "coordinates": [
          [
            13.359064,
            52.546394
          ],
          [
            13.355459,
            52.548429
          ],
          [
            13.357809,
            52.550073
          ],
          [
            13.359579,
            52.550745
          ],
          [
            13.357615,
            52.551893
          ],
          [
            13.362132,
            52.551991
          ],
          [
            13.362293,
            52.550836
          ],
          [
            13.366048,
            52.548618
          ],
          [
            13.363066,
            52.546713
          ],
          [
            13.360791,
            52.545408
          ],
          [
            13.359203,
            52.546426
          ],
          [
            13.357036,
            52.545226
          ],
          [
            13.355995,
            52.545885
          ],
          [
            13.35238,
            52.548266
          ],
          [
            13.353882,
            52.549284
          ],
          [
            13.351972,
            52.550549
          ],
          [
            13.350127,
            52.549701
          ],
          [
            13.345706,
            52.55218
          ],
          [
            13.347241,
            52.553139
          ],
          [
            13.345149,
            52.554346
          ],
          [
            13.346028,
            52.554907
          ],
          [
            13.341769,
            52.557321
          ],
          [
            13.340943,
            52.556779
          ],
          [
            13.341265,
            52.556577
          ]
        ],
        "type": "LineString"
      },
      "properties": {
        "description": "Dabei führte die Route an mehreren Häusern vorbei, deren Mieterinnen sich zum Beispiel wegen Mieterhöhungen in Protesten engagieren, unter anderem an der \"Amma65\" an der Amsterdamer Straße oder der \"Dubliner8\" an der Dubliner Straße. An der \"Amma65\" hielt der Zug kurzzeitig, Mieterinnen des Hauses sprachen durch Mikrofone vom Dach eines Wagens zu den Demonstrantinnen.\n\nAttendance:\n",
        "name": "2019 Walpurgisnacht Demo",
        "Lata": "2019"
      }
    },
    {
      "type": "Feature",
      "geometry": {
        "coordinates": [
          13.359139,
          52.546354
        ],
        "type": "Point"
      },
      "properties": {
        "osm_type": "W",
        "osm_id": 53163725,
        "osm_key": "highway",
        "osm_value": "pedestrian",
        "type": "street",
        "postcode": "13353",
        "countrycode": "DE",
        "name": "2019 Weddinger Walpurgisnacht",
        "country": "Germany",
        "city": "Berlin",
        "district": "Wedding",
        "locality": "Leopoldkiez",
        "extent": [
          13.3585449,
          52.5473658,
          13.3598708,
          52.5466368
        ],
        "Lata": "2019",
        "description": "\"Kein Gott, kein Staat, kein Mietvertrag\" skandierten die Demonstrant*innen auf ihrem Spaziergang durch den Weddinger Kiez. Auf roten Fahnen stand \"Revolution\" in schwarzen Lettern, linker Rap begleitete den Auftakt am Leopoldplatz. (taz, 2.05.2019)"
      }
    },
    {
      "type": "Feature",
      "geometry": {
        "coordinates": [
          [
            [
              13.460668,
              52.510958
            ],
            [
              13.45901,
              52.511226
            ],
            [
              13.458736,
              52.510684
            ],
            [
              13.460421,
              52.510403
            ],
            [
              13.460668,
              52.510958
            ]
          ]
        ],
        "type": "Polygon"
      },
      "properties": {
        "Lata": "2001, 2002, 2003, 2004, 2005, 2006, 2007, 2008, 2009, 2010",
        "description": "2001 – *20.00 Uhr - Boxhagener Platz (Friedrichshain) Dort soll es ebenfalls eine Walpurgisnacht-Feier mit Trommeln, Getränken und Feuer(spuckern) geben. Wir werden einen Tag vor dem Naziaufmarsch zeigen, dass Friedrichshain weiterhin ein bunter und widerspenstiger Kiez ist.* (stressfaktor.squat.com)\n*Auch am Boxhagener Platz hatten etwa 500 Menschen die Walpurgisnacht mit Lagerfeuern eingeleitet. Erst als gegen 0:30 Uhr Barrikaden auf der Straße errichtet und angezündet wurden, rückte die Polizei aus den Seitenstraßen vor. Sie wurde umgehend aus der Menge mit Steinen und Flaschen beworfen. Wasserwerfer und Räumfahrzeuge beseitigten die Barrikaden. Etwa 200 Personen wurden auf dem Platz eingekesselt. Die Beamten wurden nun aus den Seitenstraßen angegriffen. Erst gegen 1:20 Uhr beruhigte sich die Lage.* (taz 2001)\n2002 – *“Auf dem Boxhagener Platz, inzwischen ebenso ein Platz mit Mai-Tradition, wird die Walpurgisnacht etwas esoterisch mit Trommeln und Feuerspuckern begangen, es soll aber auch eine Vorbereitung zu Aktionen gegen den für den 1. Mai geplanten Nazi-Aufmarsch sein (20 Uhr). Wo genau dieser Nazi-Marsch vorbeiführen wird, ist noch das Geheimnis des Innensenators.” (“taz. Tageszeitung 2002 1. Mai”, 2002, p. 21)\n2003 – *Die Motivation ist entsprechend hoch. Ergebnisse und Erfolge sind allerdings schwer messbar. Kluge: \"In der Walpurgisnacht waren wir am Boxhagener Platz in Friedrichshain unterwegs. Dort ist es ruhig geblieben, und ich hoffe, wir haben dazu beigetragen.\" Vor zwei Jahren war es bei brennenden Barrikaden an gleicher Stelle heiß hergegangen.* (taz 2003)\n2004 – *Tausende Autonome wollen sich im Mauerpark und auf dem Boxhagener Platz treffen und die Walpurgisnacht feiern. Linke Gruppen planen eine Kundgebung an der Eberswalder Straße. Anschließend gibt es ein Straßenfest.* (Berliner Zeitung 2004)\n2005 – Gegen Yuppisierung\nund Umstrukturierung“ (taz 30.04.2005)\n2007 – Antikapitalistischer Walpurgisnacht – zum dritten Mal auf Boxi (erstermai.nostate.net 2007)\n> *Die Teilnehmer des Aufzugs hätten sich unter die Teilnehmer der Kundgebung gemischt, die – gepaart mit einer Musikveranstaltung – am Boxhagener Platz bis ca. 22 Uhr stattgefunden habe. Insgesamt hätten an der Veranstaltung 1 500 Personen teilgenommen. Nach Beendigung der Veranstaltung sei es dann gegen 23 Uhr – zum Teil sehr heftig – zu Flaschen- und Steinwürfen auf Polizeibeamte gekommen. Durch gezielte Festnahmen und konsequenten Zugriff habe die Situation jedoch bis ca. 1 Uhr nachts beruhigt werden können.*\n2009 – Walpurgisnachtfest mit Musik\n2010 –30.4. 14:00 Konzert und Kundgebung Reclaim the Kiez (taz 30.4)",
        "name": "Antikapitalistische Walpurgisnacht"
      }
    },
    {
      "type": "Feature",
      "geometry": {
        "coordinates": [
          [
            [
              13.463105,
              52.511164
            ],
            [
              13.462925,
              52.510891
            ],
            [
              13.463454,
              52.510797
            ],
            [
              13.463105,
              52.511164
            ]
          ]
        ],
        "type": "Polygon"
      },
      "properties": {
        "Lata": "2011",
        "description": "2011 – 30.4. 14:00 Konzert und Kundgebung \"Finger weg von unserem Kiez! Boxi zurück! (taz 30.4)",
        "name": "Antikapitalistische Walpurgisnacht Fest, Wismarplatz"
      }
    },
    {
      "type": "Feature",
      "geometry": {
        "coordinates": [
          [
            13.413698,
            52.521855
          ],
          [
            13.412375,
            52.524238
          ],
          [
            13.415724,
            52.527136
          ],
          [
            13.409499,
            52.528963
          ],
          [
            13.410658,
            52.530295
          ],
          [
            13.412246,
            52.531365
          ],
          [
            13.412847,
            52.53361
          ],
          [
            13.412098,
            52.541024
          ],
          [
            13.408192,
            52.541324
          ],
          [
            13.40197,
            52.54379
          ]
        ],
        "type": "LineString"
      },
      "properties": {
        "_umap_options": {
          "dashArray": "15"
        },
        "Lata": "1999",
        "description": "Reclaim the streets – demonstracyjny pochód w stronę Mauer Parku, zamiast Kollwitz Platz. (route unknown)\n\nAttendance: 100 (rbb)",
        "name": "Walpurgisnacht 1999",
        "Attendance": 100
      }
    },
    {
      "type": "Feature",
      "geometry": {
        "coordinates": [
          [
            13.353994,
            52.494775
          ],
          [
            13.354139,
            52.49548
          ],
          [
            13.353946,
            52.497048
          ]
        ],
        "type": "LineString"
      },
      "properties": {
        "_umap_options": {
          "dashArray": "10"
        },
        "Lata": "1990",
        "description": "1990\n*Leider mußten wir feststellen, daß die taz es nicht für nötig gehalten hat, über die Walpurgisnachtdemo in West -Berlin zu berichten. Es ist wohl nicht erwähnenswert, wenn 2.500 Frauen gegen Staats- und Männergewalt auf die Straße gehen.* 21.05.1990 open letter from the Notrufladies (organizers of Frauendemo in Schöneberg) published in taz\n* Winterfeld/Goltzstrasse ([F-NL-PGA-2-1146], schwules muesum\n* Goltzstrasse ([F-NL-PGA-2-1184], schwules muesum)\n\nAttendance:\n2500 (organisers)",
        "name": "1990 Walpurgisnacht Frauendemo",
        "Attendance": 2500
      }
    },
    {
      "type": "Feature",
      "geometry": {
        "coordinates": [
          [
            13.360212,
            52.490424
          ],
          [
            13.36092,
            52.49126
          ],
          [
            13.360963,
            52.492279
          ],
          [
            13.361135,
            52.4942
          ],
          [
            13.355212,
            52.494683
          ],
          [
            13.354611,
            52.497087
          ],
          [
            13.342338,
            52.502195
          ],
          [
            13.340856,
            52.50275
          ],
          [
            13.334563,
            52.504937
          ]
        ],
        "type": "LineString"
      },
      "properties": {
        "_umap_options": {
          "dashArray": "10"
        },
        "Lata": "1991",
        "description": "1991\n30.04. *Ob alt oder jung, ob geschminktoder pur, in weiten Gewändern oder Alternativ-Look, beflochten oder mitwiderspenstiger Mähne - die Hexen sind los. Start ist um 18 Uhr am Kleistpark (Schöneberg) mit einerverhexten Demo. Im Anschluß daran zieht frau gemeinsam zum Fest ein die alte TU-Mensa (Hardenbergstraße).* (Berliner Zeitung, 29.04.1991)\n* Gleditschstrasse ([F-NL-PGA-2-1833], schwules Museum)",
        "name": "1991 Frauendemo"
      }
    },
    {
      "type": "Feature",
      "geometry": {
        "coordinates": [
          [
            13.360212,
            52.490424
          ],
          [
            13.36092,
            52.49126
          ],
          [
            13.360963,
            52.492279
          ],
          [
            13.361135,
            52.4942
          ],
          [
            13.35225,
            52.494827
          ],
          [
            13.345814,
            52.494409
          ],
          [
            13.346243,
            52.495872
          ],
          [
            13.34611,
            52.497205
          ],
          [
            13.353928,
            52.499504
          ],
          [
            13.342209,
            52.501959
          ],
          [
            13.340578,
            52.502639
          ],
          [
            13.334563,
            52.504937
          ]
        ],
        "type": "LineString"
      },
      "properties": {
        "_umap_options": {
          "dashArray": "10"
        },
        "Lata": "1992",
        "description": "1992 (assumed similiar to 1991)\n30.04. 20 Uhr in Tiergarten, der TU-Mensa, Hardenberger Strabe 38,Umzug 18 Uhr ab Kielsipark.* (Berliner Zeitung, 29.04.1992)\n* Grunewladstrasse/Potsdamerstrasse([F-NL-PGA-2-1477], schwules muesum)\n*Ecke Hohenstaufenstrasse/Habsburgerstrasse ([F-NL-PGA-2-1452], schwules museum)\n* Ecke Hohenstaufenstrasse/Martin-Luther Strasse ([F-NL-PGA-2-1428], schwules museum)\n* Ecke Martin-Luther Strasse/Motzstrasse ([F-NL-PGA-2-1412], schwules museum)\n* (, schwules museum)",
        "name": "1992 Frauendemo"
      }
    },
    {
      "type": "Feature",
      "geometry": {
        "coordinates": [
          [
            13.323509,
            52.515881
          ],
          [
            13.322135,
            52.512068
          ]
        ],
        "type": "LineString"
      },
      "properties": {
        "Lata": "1994",
        "description": "13:15. Gegen die Kriminalisierung des Antifaschistiches Widerstands. Für eine Gesselschaft Ohne Knaste",
        "name": "1994 - Gegen die Kriminalisierung des Antifaschistiches Widerstands. Für eine Gesselschaft Ohne Knaste",
        "_umap_options": {
          "dashArray": "10"
        }
      }
    },
    {
      "type": "Feature",
      "geometry": {
        "coordinates": [
          [
            13.354027,
            52.495964
          ],
          [
            13.354021,
            52.494915
          ],
          [
            13.353968,
            52.494729
          ],
          [
            13.352251,
            52.494866
          ],
          [
            13.349719,
            52.494631
          ],
          [
            13.347756,
            52.494468
          ],
          [
            13.346039,
            52.494553
          ],
          [
            13.346243,
            52.495936
          ],
          [
            13.346232,
            52.496871
          ],
          [
            13.345985,
            52.499974
          ],
          [
            13.346996,
            52.501045
          ],
          [
            13.341931,
            52.502103
          ],
          [
            13.332144,
            52.506283
          ],
          [
            13.325427,
            52.509665
          ],
          [
            13.322128,
            52.51199
          ]
        ],
        "type": "LineString"
      },
      "properties": {
        "_umap_options": {
          "dashArray": "10"
        },
        "Lata": "1994",
        "description": "18:00 Winterfelderplatz\n* Hohnestauferstrasse 9 ([F-NL-PGA-2-1687], schwules museum)\n* Ecke Eisenacherstrasse ([[F-NL-PGA-2-1911], schwules museum)\n* Ecke Martin-Luther-Strasse/Winterfelderstrasse ([F-NL-PGA-2-1713], schwules museum)\n???\n20:00 Alten TU-Mensa (Hardenbergerstrasse)",
        "name": "1994 Walpurgisnacht Frauendemo"
      }
    },
    {
      "type": "Feature",
      "geometry": {
        "coordinates": [
          13.387249,
          52.526339
        ],
        "type": "Point"
      },
      "properties": {
        "Lata": "1995",
        "description": "30.04, 18:00 Frauen Lesben Demo",
        "name": "1995 – Frauen Lesben Demo"
      }
    },
    {
      "type": "Feature",
      "geometry": {
        "coordinates": [
          [
            13.387184,
            52.526953
          ],
          [
            13.387309,
            52.5263
          ],
          [
            13.389631,
            52.525752
          ],
          [
            13.397999,
            52.527214
          ],
          [
            13.397323,
            52.528689
          ],
          [
            13.39757,
            52.528761
          ],
          [
            13.397548,
            52.529433
          ],
          [
            13.401263,
            52.529668
          ],
          [
            13.402805,
            52.527893
          ],
          [
            13.403794,
            52.526065
          ],
          [
            13.415554,
            52.522723
          ],
          [
            13.413106,
            52.521496
          ]
        ],
        "type": "LineString"
      },
      "properties": {
        "_umap_options": {
          "dashArray": "10"
        },
        "Lata": "1996",
        "description": "18:00, Alexanderplatz\n* Ecke Oranienburgerstrasse/Auguststrasse (https://www.youtube.com/watch?v=1-hZEuSrsU8&t=465s)\n* U-Bahn Oranienburger Tor (https://youtu.be/1-hZEuSrsU8?si=jinhOwBSDe8nb9rz)\n????\n\nZwischendkundgebung Rosenthaler Platz\nEnde Friedrichtrasse (taz 2.05.1996)",
        "name": "1996 Frauendemo"
      }
    },
    {
      "type": "Feature",
      "geometry": {
        "coordinates": [
          [
            13.297307,
            52.510929
          ],
          [
            13.297233,
            52.510606
          ],
          [
            13.297845,
            52.510508
          ],
          [
            13.299143,
            52.506779
          ],
          [
            13.306462,
            52.506662
          ],
          [
            13.313803,
            52.506217
          ],
          [
            13.313157,
            52.500973
          ],
          [
            13.313039,
            52.500555
          ],
          [
            13.320589,
            52.501646
          ],
          [
            13.321848,
            52.501868
          ],
          [
            13.322085,
            52.502952
          ],
          [
            13.322309,
            52.505107
          ],
          [
            13.32291,
            52.50514
          ],
          [
            13.323071,
            52.505982
          ],
          [
            13.322824,
            52.506348
          ],
          [
            13.322502,
            52.506381
          ],
          [
            13.322824,
            52.508098
          ],
          [
            13.323007,
            52.509548
          ],
          [
            13.323007,
            52.510292
          ],
          [
            13.323329,
            52.510834
          ],
          [
            13.321987,
            52.511931
          ]
        ],
        "type": "LineString"
      },
      "properties": {
        "Lata": "1997",
        "description": "30.4.1997 demo 18 uhr sophie-charlotte-platz(u-bhf sophie-charloite-p. \nparty 20 uhr alte tu-mensa hardenbergstr. 35(u-bhf ernst-reutet-platz)\ndemoroute:sophie-charlotte-platz, windscheidstr., kantstr., leibnitzstr.,ku-damm, knesebeckstr. (savigny-platz), erst-reuter-platz (flyer, nadir.org)",
        "name": "1997 – Frauen, Lesben, Mädchen gegen Gewalt"
      }
    },
    {
      "type": "Feature",
      "geometry": {
        "coordinates": [
          [
            13.321931,
            52.511951
          ],
          [
            13.323316,
            52.510834
          ],
          [
            13.322822,
            52.508954
          ],
          [
            13.322339,
            52.505826
          ],
          [
            13.325537,
            52.505695
          ],
          [
            13.325247,
            52.502436
          ],
          [
            13.319388,
            52.501555
          ],
          [
            13.31914,
            52.499667
          ],
          [
            13.32706,
            52.500196
          ],
          [
            13.327457,
            52.502926
          ],
          [
            13.33031,
            52.503527
          ],
          [
            13.334871,
            52.504448
          ],
          [
            13.335675,
            52.504346
          ],
          [
            13.333433,
            52.50226
          ],
          [
            13.335247,
            52.501509
          ],
          [
            13.337628,
            52.503618
          ],
          [
            13.342144,
            52.501855
          ],
          [
            13.342531,
            52.502214
          ],
          [
            13.342842,
            52.50465
          ],
          [
            13.340171,
            52.505362
          ],
          [
            13.338829,
            52.505153
          ],
          [
            13.337499,
            52.505095
          ],
          [
            13.336512,
            52.505173
          ],
          [
            13.335515,
            52.50512
          ]
        ],
        "type": "LineString"
      },
      "properties": {
        "description": "Route — Walpurgisnacht feminist demo, 30 April 1998, Berlin Start: Breitscheidplatz, 18:00 — End: Alte TU-Mensa, Hardenbergstraße 34, 20:00\n\nBlurred poster – inferred with AI:\nBreitscheidplatz, Ansbacher Straße, Wittenbergplatz, Tauentzienstraße, Marburger Straße, Los-Angeles-Platz, Augsburger Straße, Rankstraße, Kurfürstendamm, Fasa…Breitscheidplatz, Ansbacher Straße, Wittenbergplatz, Tauentzienstraße, Marburger Straße, Los-Angeles-Platz, Augsburger Straße, Rankstraße, Kurfürstendamm, Fasanenstraße, Lietzenburger Straße, Bleibtreustraße, Kurfürstendamm, Uhlandstraße, Kantstraße, Savignyplatz, Knesebeckstraße, Hardenbergstraße",
        "Lata": "1998",
        "name": "1998 – Frauen, Lesben, Mädchen"
      }
    },
    {
      "type": "Feature",
      "geometry": {
        "coordinates": [
          [
            13.441193,
            52.473756
          ],
          [
            13.440013,
            52.473789
          ],
          [
            13.439509,
            52.473887
          ],
          [
            13.437288,
            52.474534
          ],
          [
            13.436172,
            52.474403
          ],
          [
            13.434949,
            52.474449
          ],
          [
            13.433898,
            52.47471
          ],
          [
            13.429155,
            52.475697
          ],
          [
            13.427095,
            52.475488
          ],
          [
            13.426021,
            52.477605
          ],
          [
            13.424778,
            52.481918
          ],
          [
            13.424907,
            52.483799
          ],
          [
            13.424263,
            52.485577
          ],
          [
            13.424263,
            52.486544
          ],
          [
            13.425164,
            52.487746
          ],
          [
            13.421129,
            52.494513
          ],
          [
            13.417975,
            52.499073
          ],
          [
            13.418083,
            52.499641
          ],
          [
            13.418459,
            52.500163
          ],
          [
            13.419209,
            52.501261
          ],
          [
            13.422965,
            52.500242
          ]
        ],
        "type": "LineString"
      },
      "properties": {
        "Lata": "1999",
        "description": "am 30.April um 18 Uhrab Karl-Marx-Platz(U7 Karl-Marx-Str.)ab 20 Uhr im SO 36D.Janes Elvi und Almut(Soli für den Notruf) (Flyer nadir.org)\n*Karl-Marx-Platz – Thomasstrasse – Frauenknast – Hermannstrasse – Kottbusser Damm, Adalbertstr., O-Str., Heinrichplatz ",
        "name": "1999 – Frauen, Lesben, Mädchen gegen Gewalt"
      }
    },
    {
      "type": "Feature",
      "geometry": {
        "coordinates": [
          [
            13.387637,
            52.492586
          ],
          [
            13.386497,
            52.490052
          ],
          [
            13.386873,
            52.490039
          ],
          [
            13.388397,
            52.48983
          ],
          [
            13.393677,
            52.489124
          ],
          [
            13.393843,
            52.489235
          ],
          [
            13.394486,
            52.491705
          ],
          [
            13.394704,
            52.491665
          ],
          [
            13.399915,
            52.490568
          ],
          [
            13.405217,
            52.489444
          ],
          [
            13.40629,
            52.489444
          ],
          [
            13.407234,
            52.489287
          ],
          [
            13.4079,
            52.489235
          ],
          [
            13.408736,
            52.48996
          ],
          [
            13.412311,
            52.491594
          ],
          [
            13.41296,
            52.491469
          ],
          [
            13.413255,
            52.491819
          ],
          [
            13.416175,
            52.49096
          ],
          [
            13.41977,
            52.48996
          ],
          [
            13.422696,
            52.488765
          ],
          [
            13.425486,
            52.487615
          ],
          [
            13.424499,
            52.486282
          ],
          [
            13.427934,
            52.484753
          ],
          [
            13.433665,
            52.482088
          ],
          [
            13.435275,
            52.480859
          ],
          [
            13.437185,
            52.479487
          ],
          [
            13.438758,
            52.477422
          ],
          [
            13.439637,
            52.475586
          ],
          [
            13.440646,
            52.473743
          ],
          [
            13.441214,
            52.473815
          ],
          [
            13.44218,
            52.473893
          ],
          [
            13.443489,
            52.474076
          ],
          [
            13.445184,
            52.474155
          ],
          [
            13.447073,
            52.474638
          ],
          [
            13.447416,
            52.475788
          ],
          [
            13.448039,
            52.477788
          ],
          [
            13.44553,
            52.47903
          ],
          [
            13.433812,
            52.484806
          ],
          [
            13.430357,
            52.486034
          ],
          [
            13.42569,
            52.487635
          ]
        ],
        "type": "LineString"
      },
      "properties": {
        "description": "30.04, 18:00\nSCHWERPUNKTTHEMA: ABSCHIEBUNG, FRAUENHANDEL, PROSTITUTION\nDemoroute: Hermannplatz, Sonnenallee, Hertzbergstr., Richardplatz, Kart-Marx-Platz, Karl-Mare-Str., Hermannplatz,Urbanstr., Kortestr., Gneisenaustr., Zossener Str., Bergmannstr., Mehringdamm UBhf (Flyer)\n\nAttendance: 300 (Tsg)",
        "Lata": "2000",
        "name": "2000 – Frauen, Lesben Mädchen gegen Gewalt",
        "Attendance": 300
      }
    },
    {
      "type": "Feature",
      "geometry": {
        "coordinates": [
          [
            13.424093,
            52.486223
          ],
          [
            13.424865,
            52.487795
          ],
          [
            13.421345,
            52.494226
          ],
          [
            13.418212,
            52.499288
          ],
          [
            13.416023,
            52.50221
          ]
        ],
        "type": "LineString"
      },
      "properties": {
        "Lata": "2001",
        "name": "2001 Walpurgisnacht Frauendemo – Wir erobern uns die Nacht zurück!",
        "description": "* Hermannplatz 9 richtung Kottbusser Damm 0:16 kanalb\n* Kottbusser Damm 00:25 kanalb\n* Kottbusser Tor – Oranienplatz rbb\n"
      }
    },
    {
      "type": "Feature",
      "geometry": {
        "coordinates": [
          13.424113,
          52.486282
        ],
        "type": "Point"
      },
      "properties": {
        "Lata": "2001",
        "description": "2001 Walpurgisnacht (kanal.b)",
        "name": "2001 Walpurgisnachtdemo – errobern wie die Nacht zurück!"
      }
    },
    {
      "type": "Feature",
      "geometry": {
        "coordinates": [
          [
            13.354354,
            52.496115
          ],
          [
            13.355341,
            52.49471
          ],
          [
            13.359418,
            52.494331
          ],
          [
            13.360287,
            52.494285
          ],
          [
            13.361049,
            52.494265
          ],
          [
            13.361038,
            52.494265
          ],
          [
            13.361199,
            52.495964
          ],
          [
            13.362122,
            52.497923
          ],
          [
            13.359635,
            52.498406
          ],
          [
            13.354699,
            52.499451
          ],
          [
            13.35356,
            52.500862
          ],
          [
            13.35324,
            52.502286
          ],
          [
            13.341437,
            52.505068
          ]
        ],
        "type": "LineString"
      },
      "properties": {
        "_umap_options": {
          "dashArray": "10"
        },
        "Lata": "1993",
        "description": "30.04, 18:00 – Um 18 Uhr treffen sich Frauen auf dem Winterfeldtplatz. Die Nacht vor dem 1. Mai nutzen sie, um auf Gewalt gegen Frauen aufmerksam zu machen. Der Demonstrationszug verläuft vom Nollendorfplatz zum Zoo (BZ 30.04.93)\n* Pallaststrasse (Vor 20 Jahren: Alljährliche Mai-Randale in Berlin | Spiegel TV 0:09)\n* Ecke Büllowstrasse/Frobenstrasse ([F-NL-PGA-2-1537], schwules museum)\n* rechts Karl-Heinrich-Strasse (F-NL-PGA-2-1553], schwules museum)\n\n\n",
        "name": "Walpurgisnacht Demo 1993"
      }
    }
  ]
}